,PostalCode,Venue,Category,City,Latitude,Longitude
0,M3A,Brookbanks Park,Park,Toronto,43.751976046055574,-79.33214044722958
1,M3A,KFC,Fast Food Restaurant,,43.75438666345904,-79.3330206627504
2,M3A,GreenWin pool,Pool,Toronto,43.7562324728174,-79.3338418006897
3,M3A,Variety Store,Food & Drink Shop,Toronto,43.75197441585782,-79.33311418516017
4,M4A,Victoria Village Arena,Hockey Arena,,43.72348055545508,-79.31563520925143
5,M4A,Tim Hortons,Coffee Shop,Toronto,43.725516631714754,-79.31310251366091
6,M4A,Portugril,Portuguese Restaurant,Toronto,43.72581876267242,-79.31278541470671
7,M4A,Eglinton Ave E & Sloane Ave/Bermondsey Rd,Intersection,Toronto,43.726086,-79.31362
8,M4A,Pizza Nova,Pizza Place,Toronto,43.725823726352196,-79.31286041792907
9,M4A,Wigmore Park,Park,Toronto,43.731023438497964,-79.3107706628902
10,M5A,Tandem Coffee,Coffee Shop,Toronto,43.65355870959944,-79.36180945913513
11,M5A,Roselle Desserts,Bakery,Toronto,43.653446723052674,-79.3620167174383
12,M5A,Figs Breakfast & Lunch,Breakfast Spot,Toronto,43.65567455427388,-79.3645032892494
13,M5A,Cocina Economica,Mexican Restaurant,Toronto,43.65495889022676,-79.3656572507398
14,M5A,Morning Glory Cafe,Breakfast Spot,Toronto,43.653946942635294,-79.36114884214422
15,M5A,The Yoga Lounge,Yoga Studio,Toronto,43.65551522261721,-79.36495542526245
16,M5A,Body Blitz Spa East,Spa,Toronto,43.65473505045365,-79.35987433132891
17,M5A,Sumach Espresso,Coffee Shop,Toronto,43.65813540553308,-79.35951549011845
18,M5A,Berkeley Church,Event Space,Toronto,43.65512324174501,-79.36587330410705
19,M5A,Sukhothai,Thai Restaurant,Toronto,43.658444465539525,-79.36568085121628
20,M5A,Dominion Pub and Kitchen,Pub,Toronto,43.65691857501867,-79.35896684476664
21,M5A,Rooster Coffee,Coffee Shop,Toronto,43.65189965670432,-79.36560912104514
22,M5A,Impact Kitchen,Restaurant,Toronto,43.65636850543279,-79.35697968750694
23,M5A,Mangia and Bevi Resto-Bar,Italian Restaurant,Toronto,43.652249517927686,-79.36635530500347
24,M5A,Toronto Cooper Koo Family Cherry St YMCA Centre,Gym / Fitness Center,Toronto,43.65319052672638,-79.35794700053884
25,M5A,Starbucks,Coffee Shop,Toronto,43.65132698417445,-79.36432857157803
26,M5A,Alumnae Theatre,Theater,Toronto,43.65275554626444,-79.36475283805089
27,M5A,I Love Churros,Food Truck,Toronto,43.65836361668554,-79.36558277878224
28,M5A,Vistek,Electronics Store,Toronto,43.65704640025721,-79.35966695607046
29,M5A,The Beer Store,Beer Store,Toronto,43.657773,-79.3574632
30,M5A,Savoury Grounds,Coffee Shop,Toronto,43.656820970004496,-79.3589698353747
31,M6A,Ted Baker London,Clothing Store,Toronto,43.72451893248142,-79.45270961233477
32,M6A,Apple Yorkdale,Electronics Store,Toronto,43.7242596,-79.453133
33,M6A,Yorkdale Shopping Centre,Shopping Mall,Toronto,43.72593936008051,-79.45142693927171
34,M6A,Nordstrom,Clothing Store,Toronto,43.7260761,-79.4493348
35,M6A,The Lego Store,Toy / Game Store,Toronto,43.725146367972975,-79.45297438060997
36,M6A,SEPHORA,Cosmetics Shop,Toronto,43.725469563870774,-79.45199960939351
37,M6A,Louis Vuitton Toronto Holt Renfrew Yorkdale,Leather Goods Store,Toronto,43.72485940446512,-79.45147806645349
38,M6A,JOEY,American Restaurant,Toronto,43.724131425481275,-79.45404167853917
39,M6A,Holt Renfrew,Clothing Store,Toronto,43.72462470639476,-79.45166362398024
40,M6A,UNIQLO ユニクロ,Clothing Store,Toronto,43.72644624289554,-79.450564443079
41,M6A,Tiffany & Co.,Jewelry Store,Toronto,43.724858,-79.452096
42,M6A,DAVIDsTEA,Tea Room,Toronto,43.724356324167395,-79.45389041357538
43,M6A,Nadège,Bakery,Toronto,43.72549435365618,-79.44975749964433
44,M6A,John Varvatos,Men's Store,Toronto,43.724428411509365,-79.4536886988404
45,M6A,The North Face,Sporting Goods Shop,Toronto,43.72446828543764,-79.45344896134173
46,M6A,Williams-Sonoma,Kitchen Supply Store,Toronto,43.72549729371171,-79.45180914321543
47,M6A,Disney store,Toy / Game Store,Toronto,43.725402,-79.450654
48,M6A,Zara,Clothing Store,Toronto,43.72581378585372,-79.45098261172777
49,M6A,Yuki Japanese Restaurant,Sushi Restaurant,Toronto,43.72060971477955,-79.45611946822187
50,M6A,Katz's Deli & Corned Beef Emporium,Deli / Bodega,Toronto,43.72144468980538,-79.45650431985334
51,M6A,Purdys Chocolatier,Chocolate Shop,Toronto,43.72543278056035,-79.45221178126228
52,M6A,Starbucks,Coffee Shop,Toronto,43.72463605173524,-79.45400730885653
53,M6A,Ladurée Toronto,Dessert Shop,Toronto,43.72564745827301,-79.45126510748175
54,M6A,EB Games,Video Game Store,Toronto,43.72500758722503,-79.4501001121947
55,M6A,Burberry,Boutique,Toronto,43.7252365,-79.4521221
56,M6A,lululemon,Sporting Goods Shop,Toronto,43.7256858,-79.4502545
57,M6A,American Eagle Outfitters,Clothing Store,Toronto,43.7257072,-79.4539649
58,M6A,Harry Rosen,Men's Store,Toronto,43.72519597305966,-79.45399822742344
59,M6A,Levi's,Clothing Store,Toronto Division,43.72518987998329,-79.45326085451003
60,M6A,MAC Cosmetics,Cosmetics Shop,Toronto,43.72626627282128,-79.45233453335454
61,M7A,Queen's Park,Park,Toronto,43.66394609897775,-79.39217952520835
62,M7A,Coffee Island,Coffee Shop,Toronto,43.66427089680226,-79.38697157138014
63,M7A,The Alley,Bubble Tea Shop,Toronto,43.66592244798498,-79.38556672752236
64,M7A,Tokyo Sushi,Sushi Restaurant,Toronto,43.665885330936845,-79.38697684868161
65,M7A,Wickson Social,Gastropub,Toronto,43.66590450775969,-79.38571974166427
66,M7A,YMCA,Gym,Toronto,43.66275344493089,-79.3848492869005
67,M7A,DanceLifeX Centre,Dance Studio,Toronto,43.66695583448771,-79.3852972984314
68,M7A,Sansotei Ramen 三草亭,Ramen Restaurant,Toronto,43.666734794517005,-79.3853530009483
69,M7A,Nando's Flame-Grilled Chicken,Portuguese Restaurant,Toronto,43.661617063338966,-79.38609536960354
70,M7A,T-Swirl Crepe,Creperie,Toronto,43.663452,-79.384125
71,M7A,Tokyo Grill,Japanese Restaurant,Toronto,43.665085238149395,-79.38470692554789
72,M7A,Coach House Restaurant,Diner,Toronto,43.66499059853204,-79.38481415727767
73,M7A,Como En Casa,Mexican Restaurant,Toronto,43.66516,-79.384796
74,M7A,401 Games,Hobby Shop,Toronto,43.663623277853254,-79.3840374323983
75,M7A,Crown Princess Fine Dining 伯爵名宴,Chinese Restaurant,Toronto,43.66645492941117,-79.38769789187712
76,M7A,Ethiopian House,Ethiopian Restaurant,Toronto,43.6665987043968,-79.38566906742606
77,M7A,Riddle Room,General Entertainment,Toronto,43.665881092438454,-79.38493615023397
78,M7A,Mercatto,Italian Restaurant,Toronto,43.660390911898546,-79.38766421192705
79,M7A,St. Louis Bar and Grill,Wings Joint,Toronto,43.66385323730235,-79.38418742909323
80,M7A,Curry's Art Store Ltd.,Arts & Crafts Store,Toronto,43.66283810530193,-79.38373201352064
81,M7A,Seduction,Adult Boutique,Toronto,43.66562020759618,-79.38468138721245
82,M7A,Mr. Tonkatsu,Japanese Restaurant,Toronto,43.66438157920901,-79.38440717744646
83,M7A,Coffee Public,Coffee Shop,Toronto,43.66076299149323,-79.38618409033066
84,M7A,Burrito Bandidos,Burrito Place,Toronto,43.662962178169344,-79.38395554190546
85,M7A,Isabel Bader Theatre,College Theater,Toronto,43.66732927030892,-79.39260350506324
86,M7A,Aroma Espresso Bar,Café,Toronto,43.66796263749082,-79.38887274197582
87,M7A,Hart House Theatre,Theater,Toronto,43.66357134217992,-79.3946163990837
88,M7A,LCBO,Liquor Store,Toronto,43.66442750513206,-79.38432654555464
89,M7A,Dal Moro's Fresh Pasta To Go,Italian Restaurant,Toronto,43.66664070494267,-79.38540023837237
90,M7A,Kothur Indian Cuisine,Indian Restaurant,Toronto,43.66787229558206,-79.38565911153148
91,M9A,TD Canada Trust,Bank,Etobicoke,43.6626585,-79.53186
92,M9A,Shoppers Drug Mart,Pharmacy,Toronto,43.66318130493164,-79.53173065185547
93,M9A,Humber Valley Park,Park,Toronto,43.66482484362267,-79.52499882000663
94,M9A,Humber Valley Rink,Skating Rink,,43.66482600084906,-79.5248725529118
95,M9A,Thorncrest Drug Store,Pharmacy,Toronto,43.66298764333833,-79.53181698355863
96,M9A,Foodland,Grocery Store,Toronto,43.663031504613876,-79.53192186442134
97,M1B,Canadian Appliance Source Whitby,Home Service,Whitby,43.808353360406464,-79.19133067131041
98,M3B,Elite Camps,Basketball Court,Toronto,43.745053,-79.354296
99,M3B,Elleffe Design,Furniture / Home Store,North York,43.745161548912925,-79.35368478298186
100,M3B,Shendy's Swim Centre,Pool,,43.745780550718784,-79.35335386163024
101,M3B,Rippleton Park,Park,North York,43.74087097344082,-79.35975873873495
102,M4B,Jawny Bakers,Gastropub,Toronto,43.705782646822,-79.31291304477831
103,M4B,East York Gymnastics,Gym / Fitness Center,East York,43.710654,-79.309279
104,M4B,Shoppers Drug Mart,Pharmacy,Toronto,43.705891688821325,-79.31241024393087
105,M4B,TD Canada Trust,Bank,East York,43.705739883755946,-79.31227013468737
106,M4B,Pizza Pizza,Pizza Place,East York,43.70515901620182,-79.31312955571528
107,M4B,Harvey's,Fast Food Restaurant,Toronto,43.71072995920288,-79.30883762217763
108,M4B,Rise & Dine Eatery,Breakfast Spot,Toronto,43.705769,-79.311638
109,M4B,East York Animal Clinic,Pet Store,Toronto,43.70592051370348,-79.3121958344716
110,M4B,St. Clair Ave E & O'Connor Dr,Intersection,Toronto,43.70523283448301,-79.31327432821826
111,M4B,Venice Pizza,Pizza Place,O'Connor - Parkview,43.70592051370348,-79.31395663414658
112,M4B,Harvey's,Fast Food Restaurant,Toronto,43.70813627814792,-79.3141045886623
113,M5B,Page One Cafe,Café,Toronto,43.65777161112601,-79.3760725691681
114,M5B,Blaze Pizza,Pizza Place,Toronto,43.656518,-79.380015
115,M5B,Burrito Boyz,Burrito Place,Toronto,43.656265264409015,-79.37834318376771
116,M5B,Hokkaido Ramen Santouka らーめん山頭火,Ramen Restaurant,Toronto,43.65643520293576,-79.37758637997793
117,M5B,UNIQLO ユニクロ,Clothing Store,Toronto,43.65591027779457,-79.38064099181345
118,M5B,Yonge-Dundas Square,Plaza,Toronto,43.65605389742188,-79.38049504264389
119,M5B,Silver Snail Comics,Comic Shop,Toronto,43.65703137958407,-79.38140310220501
120,M5B,The Senator Restaurant,Diner,Toronto,43.65564091455335,-79.37919882575557
121,M5B,Cineplex Cinemas Yonge-Dundas,Movie Theater,Toronto,43.65612555948613,-79.38039005666784
122,M5B,Ed Mirvish Theatre,Theater,Toronto,43.655101567321054,-79.37976762131545
123,M5B,Tacos 101,Taco Place,Toronto,43.656636132918166,-79.37696796225362
124,M5B,Jazz Bistro,Music Venue,Toronto,43.65567828473835,-79.37927565514764
125,M5B,DAVIDsTEA,Tea Room,Toronto,43.65658619027106,-79.38116704725516
126,M5B,Salad King,Thai Restaurant,Toronto,43.65760101432665,-79.38161963017174
127,M5B,Five Guys,Burger Joint,Toronto,43.65710635305761,-79.38130606340378
128,M5B,Balzac's Coffee,Café,Toronto,43.65785440672277,-79.37919981155157
129,M5B,The Grand Hotel & Suites Toronto,Hotel,Toronto,43.65644901207743,-79.3741100180102
130,M5B,The Black Canary Espresso Bar,Café,Toronto,43.65702925121356,-79.38138512728051
131,M5B,Urban Herbivore,Vegetarian / Vegan Restaurant,Toronto,43.65497185575342,-79.38085556030273
132,M5B,Ryerson Image Centre,Art Gallery,Toronto,43.65752337161094,-79.37945958709186
133,M5B,The 3 Brewers,Beer Bar,Toronto,43.655474284721,-79.38041324445061
134,M5B,Banh Mi Boys,Sandwich Place,Toronto,43.65918751861582,-79.3821314997463
135,M5B,Kinka Izakaya Original,Japanese Restaurant,Toronto,43.66059636632361,-79.37889120754515
136,M5B,Infuse Cafe,Coffee Shop,Toronto,43.658068043552504,-79.38172645275614
137,M5B,Chipotle Mexican Grill,Mexican Restaurant,Toronto,43.65648501759579,-79.38094490841218
138,M5B,Barberian's Steak House,Steakhouse,Toronto,43.65775512925926,-79.38217741375935
139,M5B,JOEY,American Restaurant,Toronto,43.6560936540828,-79.38187792357716
140,M5B,Nordstrom,Clothing Store,Toronto,43.655041,-79.3809665
141,M5B,Elgin And Winter Garden Theatres,Theater,Toronto,43.653393796019586,-79.3785073962175
142,M5B,Tim Hortons,Coffee Shop,Toronto,43.656755,-79.380512
143,M6B,Columbus Colombian Bakery (Panaderia Colombiana),Latin American Restaurant,Toronto,43.709172692546765,-79.45333079398473
144,M6B,Miyako Sushi Restaurant,Japanese Restaurant,Toronto,43.709111,-79.44393
145,M6B,Lady York Foods,Grocery Store,North York,43.709445370032775,-79.45297906087649
146,M6B,Dairy Queen,Fast Food Restaurant,Toronto,43.7100679,-79.4534411
147,M6B,Camarra's Pizzeria & Restaurant,Pizza Place,Toronto,43.708356257894906,-79.45339711779523
148,M6B,Enterprise Rent-A-Car,Rental Car Location,North York,43.70644,-79.45256
149,M6B,Darosa,Mediterranean Restaurant,Toronto,43.706995,-79.453122
150,M6B,CINQUElire,Italian Restaurant,Toronto,43.708497217747784,-79.45371253229237
151,M6B,City Fish Market,Fish Market,North York,43.709105,-79.45366
152,M9B,TD Canada Trust,Bank,Etobicoke,43.64892074538903,-79.54974755644798
153,M9B,Pizza Pizza,Pizza Place,Etobicoke,43.648754693274114,-79.54872638036836
154,M9B,Pizza Nova,Pizza Place,Toronto,43.649092,-79.549
155,M9B,My Daily Grind,Coffee Shop,Toronto,43.6501403,-79.54566030000001
156,M1C,Fox and Fiddle,Bar,Toronto,43.78908246798306,-79.15445917449385
157,M3C,Moccasin Trail Park,Park,Toronto,43.73129679204527,-79.33411541918686
158,M3C,Dallimore Cir Gym,Gym,Toronto,43.730705650693224,-79.3323164909998
159,M3C,don river,River,Toronto,43.732128830785406,-79.33713005877618
160,M3C,Empire Framing,Home Service,Toronto,43.73470099661642,-79.33746814727783
161,M4C,Old's Cool General Store,Convenience Store,Toronto,43.694483,-79.30846
162,M4C,The Beer Store,Beer Store,Toronto,43.6937312,-79.3167591
163,M4C,New Star Video,Video Store,Toronto,43.692565,-79.315937
164,M4C,Luxy Nails,Spa,,43.69285615840882,-79.3158494567113
165,M4C,Thai Wok,Asian Restaurant,Toronto,43.692789,-79.315951
166,M5C,Terroni,Italian Restaurant,Toronto,43.650927,-79.375602
167,M5C,Gyu-Kaku Japanese BBQ,Japanese Restaurant,Toronto,43.651422275497914,-79.37504693687086
168,M5C,Crepe TO,Creperie,Toronto,43.650063279511016,-79.37458664523871
169,M5C,Hogtown Smoke,Food Truck,Toronto,43.64928693557788,-79.37468932637938
170,M5C,Pearl Diver,Gastropub,Toronto,43.651481290733734,-79.37359954211877
171,M5C,Aveda Institute Toronto,Cosmetics Shop,Toronto,43.65009640955562,-79.37362952211767
172,M5C,GEORGE Restaurant,Restaurant,Toronto,43.65334645635036,-79.3744449051126
173,M5C,Triple A Bar (AAA),BBQ Joint,Toronto,43.65165840099557,-79.3727201723461
174,M5C,Fahrenheit Coffee,Coffee Shop,Toronto,43.65238358726612,-79.37271903848271
175,M5C,Beerbistro,Gastropub,Toronto,43.64941904378835,-79.37723726034164
176,M5C,St James Anglican Cathedral,Church,Toronto,43.650109744784004,-79.37429172248066
177,M5C,Dineen Coffee,Café,Toronto,43.650497,-79.378765
178,M5C,Mystic Muffin,Middle Eastern Restaurant,Toronto,43.652483550499326,-79.37265472845176
179,M5C,GoodLife Fitness,Gym,Toronto,43.65113563166627,-79.37879687835455
180,M5C,Versus Coffee,Coffee Shop,Toronto,43.65121343781903,-79.37523564828548
181,M5C,Hawthorne Food and Drink,Gastropub,Toronto,43.652270129568336,-79.37631758327606
182,M5C,Richmond Station,American Restaurant,Toronto,43.65156872562108,-79.37926594000328
183,M5C,The Carbon Bar,Restaurant,Toronto,43.65336708689279,-79.37496515174824
184,M5C,Cambridge Suites Toronto,Hotel,Toronto,43.65183649475983,-79.37810738045548
185,M5C,Club 120,Performing Arts Venue,Toronto,43.65210022195487,-79.37552157754862
186,M5C,NAMI,Japanese Restaurant,Toronto,43.650853361785124,-79.37588746641697
187,M5C,The Poké Box,Poke Place,Toronto,43.65046931503178,-79.37631703952829
188,M5C,Elgin And Winter Garden Theatres,Theater,Toronto,43.653393796019586,-79.3785073962175
189,M5C,The Omni King Edward Hotel,Hotel,Toronto,43.64919051601911,-79.37600612640387
190,M5C,Vintage Conservatory,Speakeasy,Toronto,43.6522291429876,-79.37348666333094
191,M5C,Sam James Coffee Bar (SJCB),Coffee Shop,Toronto,43.65031871629752,-79.37621650642859
192,M5C,Sukhothai,Thai Restaurant,Toronto,43.64848710249909,-79.37454735245633
193,M5C,The Chase,New American Restaurant,Toronto,43.650951982093595,-79.37942201983014
194,M5C,Starbucks,Coffee Shop,Toronto,43.650420650855466,-79.37820212176874
195,M5C,Craft Beer Market,Beer Bar,Toronto,43.6498722789121,-79.37839828995996
196,M6C,Cedarvale Park,Field,Toronto,43.692534923091934,-79.42870527613704
197,M6C,Phil White Arena,Hockey Arena,,43.69130271699826,-79.43176051142332
198,M6C,K & K,Grocery Store,Toronto,43.6894497552931,-79.43460190804107
199,M6C,Cedarvale Ravine,Trail,,43.690188230007266,-79.42610580222994
200,M6C,Cy Townsend Park,Park,Toronto,43.68964242001997,-79.43532528474807
201,M6C,Glen Cedar Park,Playground,Toronto,43.69539929852649,-79.42925308973972
202,M6C,Coffee Time Donuts,Coffee Shop,Toronto,43.691852993172056,-79.43634389759859
203,M6C,Sam's Food Store,Deli / Bodega,Toronto,43.68944002140359,-79.43570095891785
204,M9C,LCBO,Liquor Store,Etobicoke,43.642098691959625,-79.5765915607928
205,M9C,The Beer Store,Beer Store,Etobicoke,43.6413126,-79.5769248
206,M9C,Shoppers Drug Mart,Pharmacy,Etobicoke,43.641646,-79.577362
207,M9C,Pizza Hut,Pizza Place,Etobicoke,43.64184465713319,-79.5765560607079
208,M9C,Cafe Sympatico,Café,Etobicoke,43.641820470953256,-79.57672066335874
209,M9C,Hasty Market,Convenience Store,Toronto,43.641870640831144,-79.5763695106309
210,M1E,Chick-N-Joy,Fried Chicken Joint,Scarborough,43.76875171771289,-79.18798174616069
211,M1E,Little Caesars Pizza,Pizza Place,Scarborough,43.76904597684398,-79.18438601716002
212,M1E,Bulk Barn,Food & Drink Shop,West Hill,43.77134173380578,-79.1843408346176
213,M1E,LCBO,Liquor Store,Toronto,43.77146181777272,-79.18438374996185
214,M1E,Swiss Chalet Rotisserie & Grill,Pizza Place,Scarborough,43.76769708292701,-79.1899135003439
215,M1E,Booster Juice,Smoothie Shop,Scarborough,43.77066813,-79.18415042
216,M1E,Starbucks,Coffee Shop,Toronto,43.77036664216879,-79.1863129088603
217,M1E,The Beer Store,Beer Store,Scarborough,43.769793,-79.1875054
218,M1E,Shoppers Drug Mart,Pharmacy,Scarborough,43.76999251553107,-79.18554506013959
219,M1E,KFC,Fast Food Restaurant,Scarborough,43.76898399423786,-79.1856287262852
220,M1E,TD Canada Trust,Bank,Scarborough,43.770997118312,-79.18599759390418
221,M1E,Dollarama,Discount Store,Toronto,43.77047291881165,-79.18419989190978
222,M1E,McDonald's,Fast Food Restaurant,Scarborough,43.768347177966554,-79.18836835499098
223,M1E,Subway,Sandwich Place,Toronto,43.771913360495205,-79.18547467639696
224,M1E,Shoeless Joe's,Sports Bar,Scarborough,43.768891580866935,-79.18585091829299
225,M1E,Pizza Hut,Pizza Place,Scarborough,43.770455,-79.1861572
226,M1E,Pizza Pizza,Pizza Place,Scarborough,43.7684131598454,-79.18792963027954
227,M1E,Tim Hortons,Coffee Shop,Scarborough,43.7698668,-79.1868834
228,M1E,Food Basics,Supermarket,Scarborough,43.77001337309147,-79.18553952416049
229,M1E,Taste Of Greek Cuisine,Greek Restaurant,Toronto,43.768259,-79.189608
230,M1E,Joseph's No Frills,Grocery Store,Scarborough,43.76912463269713,-79.18732052005362
231,M1E,Bus Stop: 54 & 116 & 86D,Bus Line,Toronto,43.76833568239687,-79.18627738952637
232,M1E,First Choice Haircutters,Salon / Barbershop,Scarborough,43.76921867036633,-79.1845377449764
233,M1E,Lawrence Ave E & Kingston Rd,Intersection,Toronto,43.767704,-79.18949
234,M1E,Lick's Homeburgers,Burger Joint,Toronto,43.77167716068725,-79.18538033022018
235,M1E,National Thrift,Thrift / Vintage Store,Toronto,43.76799932703117,-79.19024597235247
236,M1E,GameStop,Video Game Store,Scarborough,43.77035204879336,-79.18525404725565
237,M1E,Convenience Plus,Convenience Store,West Hil,43.76932738615917,-79.18344497680664
238,M1E,Eggsmart,Breakfast Spot,Toronto,43.7678,-79.190466
239,M1E,M&M Food Market,Grocery Store,Toronto,43.7704766,-79.1840651
240,M4E,The Big Carrot Natural Food Market,Health Food Store,Toronto,43.678879,-79.297734
241,M4E,Beaches Bake Shop,Bakery,Toronto,43.68036312619922,-79.28969173416124
242,M4E,The Beech Tree,Gastropub,Toronto,43.680493,-79.288846
243,M4E,Grover Pub and Grub,Pub,Toronto,43.679181434941015,-79.29721535878515
244,M4E,Upper Beaches,Neighborhood,Toronto,43.68056321147582,-79.2928688743688
245,M5E,Canoe,Restaurant,Toronto,43.647452066183476,-79.38132001815676
246,M5E,Equinox Bay Street,Gym,Toronto,43.64809974034856,-79.37998869411526
247,M5E,Adelaide Club Toronto,Gym / Fitness Center,Toronto,43.64927944291712,-79.38192123284551
248,M5E,Maman,Café,Toronto,43.64830873804684,-79.38225333898805
249,M5E,Cactus Club Cafe,American Restaurant,Toronto,43.6495520142626,-79.38167072512041
250,M5E,Mos Mos Coffee,Café,Toronto,43.64815919753501,-79.37874450467258
251,M5E,Walrus Pub & Beer Hall,Pub,Toronto,43.64737470920577,-79.37951515363918
252,M5E,Ki Modern Japanese + Bar,Japanese Restaurant,Toronto,43.64710349021134,-79.37938978621831
253,M5E,Pilot Coffee Roasters,Coffee Shop,Toronto,43.648835391245896,-79.3809358125033
254,M5E,Brick Street Bakery,Bakery,Toronto,43.6488151631615,-79.38060468610949
255,M5E,King Taps,Gastropub,Toronto,43.648475974183,-79.38205778358744
256,M5E,Design Exchange,Art Gallery,Toronto,43.64797219581623,-79.38010382588462
257,M5E,Sam James Coffee Bar (SJCB),Café,Toronto,43.64788137014028,-79.38433152836829
258,M5E,Hy's Steakhouse,Steakhouse,Toronto,43.649504756476944,-79.38291850488223
259,M5E,Olly Fresco's,Deli / Bodega,Toronto,43.646912231909276,-79.37959661696463
260,M5E,The Fairmont Royal York,Hotel,Toronto,43.64544914616651,-79.3815076529019
261,M5E,Starbucks,Coffee Shop,Toronto,43.646935797838935,-79.38442766632808
262,M5E,Pumpernickel's Deli,Deli / Bodega,Toronto,43.64883150054619,-79.38197006345457
263,M5E,The Keg Steakhouse & Bar,Steakhouse,Toronto,43.649937252985254,-79.38419604942506
264,M5E,Earls Kitchen & Bar,Bar,Toronto,43.647945662980305,-79.3837058277153
265,M5E,Bymark,Restaurant,Toronto,43.647217284018005,-79.38125188166379
266,M5E,Dineen @CommerceCourt,Coffee Shop,Toronto,43.648250543365556,-79.38012728220869
267,M5E,Kupfert & Kim (First Canadian Place),Gluten-free Restaurant,Toronto,43.64854659465186,-79.38162406470161
268,M5E,Pizzeria Libretto,Pizza Place,Toronto,43.64833354686235,-79.38511050184168
269,M5E,John & Sons Oyster House,Seafood Restaurant,Toronto,43.65065642537144,-79.38161285228475
270,M5E,Reds Wine Tavern,Gastropub,Toronto,43.64957038171473,-79.38212873483711
271,M5E,McEwan Foods,Deli / Bodega,Toronto,43.64716011126396,-79.38104402548048
272,M5E,Dineen Coffee,Café,Toronto,43.650497,-79.378765
273,M5E,Boxcar Social Temperance,Bar,Toronto,43.65055725249405,-79.38195634640063
274,M5E,Hockey Hall Of Fame (Hockey Hall of Fame),Museum,Toronto,43.646974451431056,-79.37732323942681
275,M6E,Shoppers Drug Mart,Pharmacy,Toronto,43.690650720838846,-79.45631000555339
276,M6E,Rebozos,Mexican Restaurant,Toronto,43.68477300934671,-79.44958805834105
277,M6E,Doce Minho Pastry & Bakery,Bakery,Toronto,43.6918926751435,-79.44819075003524
278,M6E,KFC,Fast Food Restaurant,Toronto,43.69064732256945,-79.456325832418
279,M6E,Al Flaherty's Outdoor Store,Sporting Goods Shop,Toronto,43.68712586511377,-79.44692701193912
280,M6E,York Academy of Martial Arts,Gym,Toronto,43.68762147805076,-79.44647645763582
281,M6E,Fairbank Memorial Park,Park,Toronto,43.69202800194052,-79.44892353333186
282,M6E,The Beer Store,Beer Store,Toronto,43.68670707908932,-79.44549292289102
283,M6E,Nairn Park,Park,Toronto,43.69065390931841,-79.4562995791835
284,M6E,Walmart,Market,Toronto,43.690659578356374,-79.45631672044142
285,M6E,Maximum Woman,Women's Store,Toronto,43.69065130310669,-79.45633320240984
286,M1G,Korean Grill House,Korean Restaurant,Toronto,43.7708117291354,-79.21450208834013
287,M1G,Convenience Plus,Convenience Store,Toronto,43.771860484030945,-79.20936271456327
288,M1G,Leslie & Giles Insurance Limited,Insurance Office,Scarborough,43.7731162,-79.2195586
289,M4G,Local Leaside,Sports Bar,Toronto,43.71001166793114,-79.36351433524794
290,M4G,Mercedes-Benz Midtown,Auto Dealership,Toronto,43.71358733310499,-79.36156776119117
291,M4G,PetSmart,Pet Store,East York,43.7126819,-79.3626365
292,M4G,LCBO,Liquor Store,Toronto,43.710571304463954,-79.36028703241085
293,M4G,Kintako Japanese Restaurant,Sushi Restaurant,Toronto,43.71159659251094,-79.36396207124376
294,M4G,The Leaside Pub,Restaurant,Toronto,43.710428911854564,-79.36354706165021
295,M4G,Nando's flame-grilled chicken,Portuguese Restaurant,Toronto,43.71302087340598,-79.35998607557845
296,M4G,Starbucks,Coffee Shop,Toronto,43.71355316863905,-79.36483215979176
297,M4G,Shoeless Joes,Sports Bar,Toronto,43.7135032798817,-79.36541229739075
298,M4G,Mt Everest Restaurant,Indian Restaurant,East York,43.713265579296,-79.36652040161064
299,M4G,TD Canada Trust Branch and ATM,Bank,Toronto,43.711620471105384,-79.36354860663414
300,M4G,South St. Burger,Burger Joint,Toronto,43.71051026319384,-79.36158441272885
301,M4G,Pier 1 Imports,Furniture / Home Store,East York,43.7133394919619,-79.3643121421883
302,M4G,Subway,Sandwich Place,Toronto,43.710410108561625,-79.36185814836224
303,M4G,Golf Town,Sporting Goods Shop,Toronto,43.70940869587626,-79.3623167837894
304,M4G,Winners,Clothing Store,Toronto,43.7094205909056,-79.36093211174
305,M4G,Marshalls,Department Store,Toronto,43.7138435,-79.3591035
306,M4G,Sunset Grill,Breakfast Spot,Toronto,43.71008051140994,-79.36252937590784
307,M4G,The Great Canadian Bagel,Bagel Shop,Toronto,43.71327461980094,-79.36502672732136
308,M4G,Sport Chek,Sporting Goods Shop,Toronto,43.70985360457569,-79.36045518457757
309,M4G,Golden Tian,Spa,Toronto,43.7142,-79.365
310,M4G,Zip-Car,Rental Car Location,Toronto,43.714232,-79.36359
311,M4G,Starbucks,Coffee Shop,Toronto,43.71034154336832,-79.36094765905699
312,M4G,Select Sandwich,Restaurant,Toronto,43.714080841677884,-79.36023689117143
313,M4G,Best Buy,Electronics Store,Toronto,43.709255121223215,-79.36168044805527
314,M4G,Rogers - No Wires Direct Egg,Electronics Store,Toronto,43.714004,-79.359951
315,M5G,Jimmy's Coffee,Coffee Shop,Toronto,43.65842123574496,-79.38561319551111
316,M5G,The Queen and Beaver Public House,Gastropub,Toronto,43.65747228208784,-79.38352412327917
317,M5G,Japango,Sushi Restaurant,Toronto,43.65526771691681,-79.38516506734886
318,M5G,Sansotei Ramen 三草亭,Ramen Restaurant,Toronto,43.655157467561246,-79.38650067479335
319,M5G,Textile Museum of Canada,Art Museum,Toronto,43.65439630500274,-79.38650010906946
320,M5G,Chatime 日出茶太,Bubble Tea Shop,Toronto,43.65554164147378,-79.38468427043244
321,M5G,Tsujiri,Tea Room,Toronto,43.65537430780922,-79.38535434742991
322,M5G,The Elm Tree Restaurant,Modern European Restaurant,Toronto,43.65739749535259,-79.38376054171513
323,M5G,Red Lobster,Seafood Restaurant,Toronto,43.656328,-79.383621
324,M5G,GB Hand-Pulled Noodles,Chinese Restaurant,Toronto,43.65643422548463,-79.3837827356398
325,M5G,Poke Guys,Poke Place,Toronto,43.65489527525682,-79.38505238381624
326,M5G,MUJI,Miscellaneous Shop,Toronto,43.656024,-79.383284
327,M5G,Tim Hortons,Coffee Shop,Toronto,43.658569999999976,-79.38512341104502
328,M5G,Rolltation,Japanese Restaurant,Toronto,43.65491791857301,-79.3874242454196
329,M5G,Panago,Pizza Place,Toronto,43.65825817735338,-79.38431282558368
330,M5G,Hailed Coffee,Coffee Shop,Toronto,43.65883296982352,-79.38368351986598
331,M5G,Downtown Toronto,Neighborhood,Toronto,43.65323167517444,-79.38529600606677
332,M5G,Uncle Tetsu's Cheesecake (Uncle Tetsu's Japanese Cheesecake),Dessert Shop,Toronto,43.65606287245643,-79.38369472446465
333,M5G,Butter Baker,Bakery,Toronto,43.65566927096165,-79.3842978108375
334,M5G,Bubble Republic Tea House 奶茶黨部,Bubble Tea Shop,Toronto,43.656707495984975,-79.38416470657434
335,M5G,Silver Snail Comics,Comic Shop,Toronto,43.65703137958407,-79.38140310220501
336,M5G,Salad King,Thai Restaurant,Toronto,43.65760101432665,-79.38161963017174
337,M5G,Yueh Tung Chinese Restaurant,Chinese Restaurant,Toronto,43.655281263429195,-79.3853365267765
338,M5G,Ali Baba's,Middle Eastern Restaurant,Toronto,43.65491647880546,-79.38717216891472
339,M5G,Elmwood Spa,Spa,Toronto,43.6577592341367,-79.38258620521141
340,M5G,JOEY,American Restaurant,Toronto,43.6560936540828,-79.38187792357716
341,M5G,Barberian's Steak House,Steakhouse,Toronto,43.65775512925926,-79.38217741375935
342,M5G,Cafe Plenty,Café,Toronto,43.65457125894357,-79.38944976536852
343,M5G,Banh Mi Boys,Sandwich Place,Toronto,43.65918751861582,-79.3821314997463
344,M5G,UNIQLO ユニクロ,Clothing Store,Toronto,43.65591027779457,-79.38064099181345
345,M6G,Fiesta Farms,Grocery Store,Toronto,43.66847077052224,-79.42048512748114
346,M6G,Christie Pits Park,Park,Toronto,43.664177378861446,-79.42046642303467
347,M6G,Contra Cafe,Café,Toronto,43.669107144072974,-79.42610471852032
348,M6G,Scout and Cash Caffe,Café,Toronto,43.66735987720157,-79.41993774586636
349,M6G,Starbucks,Coffee Shop,Toronto,43.671585333016466,-79.42136550708386
350,M6G,Vermont Square Park,Playground,Toronto,43.67049272376341,-79.41539937385534
351,M6G,Karma Co-operative,Grocery Store,Toronto,43.66818455762173,-79.41450362458382
352,M6G,Loblaws,Grocery Store,Toronto,43.671806531827656,-79.42110162429452
353,M6G,Faema Caffe,Café,Toronto,43.6720032,-79.4222086
354,M6G,Marlenes Just Babies,Baby Store,Toronto,43.671824,-79.420499
355,M6G,Queens Club,Athletics & Sports,Toronto,43.672386069777616,-79.41810570233238
356,M1H,Hydro Corridor,Trail,Toronto,43.76625053049208,-79.24326748552245
357,M1H,Scarborough Heating & Air Conditioning Ltd,Construction & Landscaping,Scarborough,43.766204,-79.234135
358,M1H,The Avenue,Lounge,Scarborough,43.77243726897931,-79.24196241109247
359,M2H,Woodbrooke Estate,Residential Building (Apartment / Condo),Toronto,43.802067347853196,-79.35434683847974
360,M2H,Yrt 4231,Bus Stop,,43.802563948014985,-79.35337882305815
361,M2H,McNicoll Park,Park,Toronto,43.79899405528827,-79.35283981009718
362,M3H,Grill Gate,Mediterranean Restaurant,North York,43.753122978404804,-79.45169001817703
363,M3H,Wolfie's Deli,Deli / Bodega,Toronto,43.754875481443555,-79.44243785404784
364,M3H,Orly Restaurant & Grill,Middle Eastern Restaurant,Toronto,43.754493246006334,-79.44350727697311
365,M3H,Tim Hortons,Coffee Shop,Toronto,43.75476686520758,-79.44325044751167
366,M3H,Popeyes Louisiana Kitchen,Fried Chicken Joint,Toronto,43.754671343663034,-79.44274006861691
367,M3H,Domino's Pizza,Pizza Place,Toronto,43.753049209614645,-79.45096541839962
368,M3H,The Appliance Mechanic,Other Repair Shop,Toronto,43.7539164,-79.45186030000002
369,M4H,Costco Wholesale,Warehouse Store,Toronto,43.70705091308799,-79.3480933503406
370,M4H,Bamiyan Kabob,Afghan Restaurant,Toronto,43.70782435998825,-79.34344628586337
371,M4H,Iqbal Kebab & Sweet Centre,Indian Restaurant,Toronto,43.705923230061344,-79.35152127765924
372,M4H,Pasha Authentic Turkish Cuisine,Turkish Restaurant,Toronto,43.708239752282864,-79.34269885561817
373,M4H,Shoppers Drug Mart,Pharmacy,Toronto,43.70620905709154,-79.34669185112756
374,M4H,Faley Restaurant,Indian Restaurant,Toronto,43.70811251975841,-79.34357902389091
375,M4H,Hero Certified Burgers,Burger Joint,Toronto,43.70551137025456,-79.34706447492002
376,M4H,Bikram Yoga East York,Yoga Studio,Toronto,43.70545001006983,-79.35144826217264
377,M4H,Starbucks,Coffee Shop,Toronto,43.707947,-79.34252
378,M4H,Hakka Garden,Indian Restaurant,Toronto,43.704578351261326,-79.34977027417523
379,M4H,Subway,Sandwich Place,Toronto,43.704627625493806,-79.34966067001598
380,M4H,TD Canada Trust,Bank,Toronto,43.7063562,-79.3456426
381,M4H,Pizza Pizza,Pizza Place,East York,43.705564293137044,-79.34713894303022
382,M4H,Iqbal foods,Grocery Store,Toronto,43.70575095291481,-79.35205378554073
383,M4H,Afghan Cuisine,Afghan Restaurant,,43.7080751573203,-79.34298516936218
384,M4H,Tim Hortons,Coffee Shop,East York,43.7050898,-79.3505453
385,M4H,Swiss Chalet,Restaurant,Toronto,43.707537822614576,-79.34374277950216
386,M4H,Food Basics,Supermarket,Toronto,43.7053872932289,-79.34733754588716
387,M4H,Popeyes Louisiana Kitchen,Fried Chicken Joint,East York,43.7078089496658,-79.34304867541769
388,M4H,Fit4Less,Gym,Toronto,43.70583800582371,-79.34617056231423
389,M4H,Quiznos,Sandwich Place,Toronto,43.705887244788975,-79.34702342783567
390,M4H,Capital Sweets and Samosas,Indian Restaurant,Toronto,43.70788689104174,-79.3433716818008
391,M4H,Mayfair Homes,Housing Development,East York,43.70556,-79.35054
392,M4H,Anatolian's Turkish Restaurant,Turkish Restaurant,Toronto,43.708056671215886,-79.34263647483004
393,M4H,R.V. Burgess Park,Park,Toronto,43.70347968699246,-79.34331856560732
394,M4H,Cross Fit Quantum,Gym / Fitness Center,Toronto,43.70688280775818,-79.35081900071673
395,M4H,Trendee Chinese Cuisine,Asian Restaurant,Toronto,43.708212839174564,-79.34261997257181
396,M5H,The Keg Steakhouse & Bar,Steakhouse,Toronto,43.649937252985254,-79.38419604942506
397,M5H,John & Sons Oyster House,Seafood Restaurant,Toronto,43.65065642537144,-79.38161285228475
398,M5H,Adelaide Club Toronto,Gym / Fitness Center,Toronto,43.64927944291712,-79.38192123284551
399,M5H,Four Seasons Centre for the Performing Arts,Concert Hall,Toronto,43.650592,-79.385806
400,M5H,Maman,Café,Toronto,43.64830873804684,-79.38225333898805
401,M5H,Estiatorio Volos,Greek Restaurant,Toronto,43.65032912559998,-79.38453301297716
402,M5H,Cactus Club Cafe,American Restaurant,Toronto,43.6495520142626,-79.38167072512041
403,M5H,Pizzeria Libretto,Pizza Place,Toronto,43.64833354686235,-79.38511050184168
404,M5H,Rosalinda,Vegetarian / Vegan Restaurant,Toronto,43.650252483069295,-79.38515575620075
405,M5H,Cafe Landwer,Café,Toronto,43.64875349932059,-79.3853673607289
406,M5H,Sam James Coffee Bar (SJCB),Café,Toronto,43.64788137014028,-79.38433152836829
407,M5H,King Taps,Gastropub,Toronto,43.648475974183,-79.38205778358744
408,M5H,Pilot Coffee Roasters,Coffee Shop,Toronto,43.648835391245896,-79.3809358125033
409,M5H,Bosk at Shangri-La,Asian Restaurant,Toronto,43.649022736761516,-79.38582635521233
410,M5H,M Square Coffee Co,Coffee Shop,Toronto,43.65121797253777,-79.38355459932247
411,M5H,Hy's Steakhouse,Steakhouse,Toronto,43.649504756476944,-79.38291850488223
412,M5H,Boxcar Social Temperance,Bar,Toronto,43.65055725249405,-79.38195634640063
413,M5H,The Gabardine,American Restaurant,Toronto,43.65098801064232,-79.38122513218154
414,M5H,Soho House Toronto,Speakeasy,Toronto,43.64873430659662,-79.38654117564838
415,M5H,Assembly Chef's Hall,Food Court,Toronto,43.650578865093934,-79.3834119303614
416,M5H,Shangri-La Toronto,Hotel,Toronto,43.64912919417502,-79.3865566853963
417,M5H,Canoe,Restaurant,Toronto,43.647452066183476,-79.38132001815676
418,M5H,Hilton Toronto,Hotel,Toronto,43.64985232228859,-79.38557624816895
419,M5H,Brick Street Bakery,Bakery,Toronto,43.6488151631615,-79.38060468610949
420,M5H,Pumpernickel's Deli,Deli / Bodega,Toronto,43.64883150054619,-79.38197006345457
421,M5H,Nathan Phillips Square,Plaza,Toronto,43.65227047322295,-79.38351631164551
422,M5H,Momofuku Noodle Bar,Noodle House,Toronto,43.6493658716176,-79.38621652451032
423,M5H,Ruth's Chris Steak House,Steakhouse,Toronto,43.6499174,-79.3857238
424,M5H,Equinox Bay Street,Gym,Toronto,43.64809974034856,-79.37998869411526
425,M5H,Earls Kitchen & Bar,Bar,Toronto,43.647945662980305,-79.3837058277153
426,M6H,Rosie Robin A Touch Of Convenience,Café,Toronto,43.66318235854112,-79.43542722772675
427,M6H,The Greater Good Bar,Bar,Toronto,43.669409,-79.439267
428,M6H,Parallel,Middle Eastern Restaurant,Toronto,43.66951635632503,-79.43872770646192
429,M6H,Happy Bakery & Pastries,Bakery,Toronto,43.66705039063128,-79.44179124412831
430,M6H,Dovercourt Park,Park,,43.664915496359505,-79.43412931213085
431,M6H,FreshCo,Supermarket,Toronto,43.66791838591585,-79.44075425394298
432,M6H,Planet Fitness Toronto Galleria,Gym / Fitness Center,Toronto,43.66758797288865,-79.44257365441428
433,M6H,Nova Era Bakery,Bakery,Toronto,43.66988647609785,-79.43758190821525
434,M6H,Wallace Emerson Park,Park,Toronto,43.66693250395496,-79.4394486237563
435,M6H,Rexall,Pharmacy,Toronto,43.66802049335871,-79.44087550054661
436,M6H,TD Canada Trust,Bank,Toronto,43.6679361,-79.4418413
437,M6H,LCBO,Liquor Store,Toronto,43.66700154292355,-79.44174720320675
438,M6H,Stop BBQ Chicken,Brazilian Restaurant,Toronto,43.665923081653766,-79.43804189355156
439,M6H,TTC Bus #29 Dufferin,Bus Line,Toronto,43.664738019572184,-79.43709737814093
440,M6H,Wallace Emerson Community Centre,Pool,Toronto,43.66729321721379,-79.43947609874155
441,M6H,Wallace Emerson Gym,Gym,Toronto,43.6674153893425,-79.43906397310164
442,M6H,McDonald's,Fast Food Restaurant,Toronto,43.66794224726414,-79.43904606792499
443,M6H,Galleria Smokers Choice,Smoke Shop,Toronto,43.668135,-79.44004598818758
444,M6H,Pet Valu,Pet Store,Toronto,43.667096215743925,-79.44175682188086
445,M6H,The Brick,Furniture / Home Store,Toronto,43.66912616885337,-79.44025978782156
446,M1J,Justin Boobys Metrosexual Spa,Spa,Toronto,43.745348,-79.234237
447,M1J,M&S Supermarket,Grocery Store,Toronto,43.746518727784135,-79.23160927976531
448,M2J,The LEGO Store,Toy / Game Store,Toronto,43.77820727238842,-79.34348299621146
449,M2J,Shoppers Drug Mart,Pharmacy,Willowdale,43.77887797856986,-79.34469666026429
450,M2J,CF Fairview Mall,Shopping Mall,Toronto,43.77754829442772,-79.34448470921369
451,M2J,Apple Fairview,Electronics Store,Toronto,43.7779146,-79.343561
452,M2J,Hero Certified Burgers,Burger Joint,Toronto,43.7772948385197,-79.34458372068603
453,M2J,SilverCity Fairview Mall Cinemas,Movie Theater,Toronto,43.77868093228815,-79.3440850072426
454,M2J,DAVIDsTEA,Tea Room,Toronto,43.77754451824154,-79.34526267457191
455,M2J,Michel's Baguette,Bakery,Toronto,43.77708227220403,-79.34455653003414
456,M2J,Moxie's Classic Grill,American Restaurant,North York,43.777778810576905,-79.34318499889385
457,M2J,Purdys Chocolatier,Candy Store,Toronto,43.778098701639394,-79.34385251241302
458,M2J,Fairview Library Theatre,Theater,Toronto,43.779018057023805,-79.34652599431665
459,M2J,H&M,Clothing Store,Toronto,43.77754859086118,-79.34560423018411
460,M2J,New York Fries,Fast Food Restaurant,Toronto,43.77829829945936,-79.34326735202254
461,M2J,Aroma Espresso Bar,Coffee Shop,Toronto,43.777700197902725,-79.34465166972005
462,M2J,The Bay,Department Store,Toronto,43.777830351654046,-79.34304327486974
463,M2J,De Berardini's,Salon / Barbershop,Toronto,43.77806925637981,-79.34264197549473
464,M2J,Booster Juice,Smoothie Shop,North York,43.77742786,-79.3449699
465,M2J,J.Crew,Clothing Store,Toronto,43.7779417,-79.3451178
466,M2J,Ten Ren's Tea Time,Juice Bar,Toronto,43.777158444629066,-79.34453087278449
467,M2J,TD Canada Trust,Bank,Willowdale,43.777763,-79.345974
468,M2J,Zara,Clothing Store,North York,43.777961241763556,-79.34469070057258
469,M2J,Starbucks,Coffee Shop,Toronto,43.778286847314284,-79.34333091159938
470,M2J,Heart Sushi,Japanese Restaurant,Toronto,43.777203,-79.343805
471,M2J,Old Navy,Clothing Store,Toronto,43.777717,-79.344749
472,M2J,Fairview Mall Food Garden,Food Court,Toronto,43.77836930887007,-79.34321606591291
473,M2J,Thai Express,Restaurant,Toronto,43.77744187801327,-79.3463604095086
474,M2J,Tim Hortons,Coffee Shop,North York,43.777964,-79.344715
475,M2J,Hollister Co.,Clothing Store,Toronto,43.778088689883695,-79.34370423838938
476,M2J,LCBO,Liquor Store,Toronto,43.77895496200283,-79.34504796258686
477,M2J,Tommy Hilfiger Company Store,Clothing Store,North York,43.77742747193735,-79.34589327979445
478,M3J,MUSE Massage Spa,Massage Studio,Toronto,43.7656861872247,-79.4893183666046
479,M3J,Bamiyan Kabob,Middle Eastern Restaurant,Toronto,43.773768556446406,-79.49274051998997
480,M3J,Domino's Pizza,Pizza Place,North York,43.77344076002103,-79.49280054786901
481,M3J,Quiznos,Sandwich Place,,43.77349613,-79.493128
482,M3J,The Pita Pit,Sandwich Place,Toronto,43.77384881342947,-79.49271336540487
483,M3J,Hoops,Sports Bar,Toronto,43.77347548214057,-79.49288381668657
484,M4J,Sammon Convenience,Convenience Store,Toronto,43.68695102703702,-79.33500661843325
485,M4J,The Red Rocket,Coffee Shop,Toronto,43.68804803553563,-79.33327372317169
486,M4J,The Path,Park,,43.68392344354094,-79.33500661843325
487,M4J,Aldwych Park,Park,Toronto,43.68490095564762,-79.34109075059628
488,M5J,Island Cafe,Café,Toronto,43.63092254618985,-79.35606798893221
489,M5J,Ward's Island Ferry Dock,Pier,Toronto,43.6315066890409,-79.35786786493996
490,M5J,Queen City Yacht Club,Harbor / Marina,Toronto,43.630068779386676,-79.35804830436437
491,M5J,A&W,Fast Food Restaurant,Toronto,43.6326893,-79.3551674
492,M6J,Bellwoods Brewery,Brewery,Toronto,43.647097254598236,-79.41995537873463
493,M6J,Reposado,Bar,Toronto,43.647320789001384,-79.42003151431754
494,M6J,Artscape Youngplace,Art Gallery,Toronto,43.646921206418654,-79.4173424662258
495,M6J,Pho Rua Vang (Golden Turtle),Vietnamese Restaurant,Toronto,43.64689319654605,-79.41977781583955
496,M6J,Foxley Bistro,Asian Restaurant,Toronto,43.648642746283834,-79.42049525794245
497,M6J,YogaSpace,Yoga Studio,Toronto,43.64760744635252,-79.42013338783642
498,M6J,Bang Bang Ice Cream & Bakery,Ice Cream Shop,Toronto,43.64624619920086,-79.41955285188536
499,M6J,OddSeoul,Korean Restaurant,Toronto,43.64619218474247,-79.4196014527498
500,M6J,Pizzeria Libretto,Pizza Place,Toronto,43.64897862710277,-79.4206035669193
501,M6J,La Cubana,Cuban Restaurant,Toronto,43.64623003878161,-79.4196356996568
502,M6J,Mamakas Taverna,Greek Restaurant,Toronto,43.64604217335094,-79.41967886278816
503,M6J,Union Restaurant,New American Restaurant,Toronto,43.64585979013257,-79.41953208988866
504,M6J,Gift Shop,Cocktail Bar,Toronto,43.64614871682715,-79.41948131634449
505,M6J,i deal coffee,Coffee Shop,Toronto,43.64784412071227,-79.4202942461777
506,M6J,Rotate This,Record Shop,Toronto,43.64854360521872,-79.42051802319355
507,M6J,Lower Ossington Theatre,Theater,Toronto,43.64638945106542,-79.4197810126815
508,M6J,Venezia Bakery,Bakery,Toronto,43.6468112760052,-79.41980345671674
509,M6J,The Communist's Daughter,Bar,Toronto,43.64936167997857,-79.42096310360856
510,M6J,Superpoint,Pizza Place,Toronto,43.648438964819064,-79.42051429823161
511,M6J,Trinity Bellwoods Park,Park,Toronto,43.64707192840234,-79.4137559260075
512,M6J,Bazara,Japanese Restaurant,Toronto,43.64853491212856,-79.4205209529485
513,M6J,La Banane,French Restaurant,Toronto,43.64904020618134,-79.42059946263156
514,M6J,Academy Of Lions CrossFit Toronto,Gym / Fitness Center,Toronto,43.645717362325456,-79.41943732169375
515,M6J,Bobbie Sue's Mac + Cheese,Mac & Cheese Joint,Toronto,43.64778276946676,-79.42041900552132
516,M6J,Pho Tien Thanh,Vietnamese Restaurant,Toronto,43.6454840897343,-79.41927617283633
517,M6J,Dakota Tavern,Bar,Toronto,43.64967991705445,-79.42083755592827
518,M6J,Paris Paris Bar,Wine Bar,Toronto,43.649237,-79.421436
519,M6J,The Tampered Press,Coffee Shop,Toronto,43.65006186869144,-79.41728020642847
520,M6J,Hero Heroine,Salon / Barbershop,Toronto,43.64900419974215,-79.42068636417389
521,M6J,Trinity Bellwoods Dog Park - The Bowl,Dog Run,Toronto,43.64862507107537,-79.4144429897052
522,M1K,Giant Tiger,Department Store,Scarborough,43.72744662939136,-79.26624035854763
523,M1K,Subway,Sandwich Place,Toronto,43.73166209424025,-79.26863193511963
524,M1K,Tim Hortons,Coffee Shop,Scarborough,43.72689508691926,-79.26615692675114
525,M1K,Tim Hortons,Coffee Shop,Toronto,43.732134410174226,-79.2682641425723
526,M1K,TD Canada Trust,Bank,Scarborough,43.733135696904675,-79.2678938806074
527,M1K,Kennedy Station Passenger Pickup,Bus Station,Scarborough,43.73200926072711,-79.26453709017373
528,M1K,Gateway Newstands,Convenience Store,Scarborough,43.7325102050885,-79.26385442345111
529,M1K,Kennedy Subway/RT Station,Metro Station,Toronto,43.73258189986914,-79.26343026387866
530,M1K,TTC Bus #43 - Kennedy,Bus Line,Toronto,43.73274357839762,-79.26408564983338
531,M1K,SRT - Moving Target,Light Rail Station,Scarborough,43.732974036277405,-79.26378835866568
532,M1K,Don Montgomery Arena,Hockey Arena,,43.732549046367076,-79.26165774437062
533,M1K,Rob's No Frills,Grocery Store,Scarborough,43.73310382148854,-79.26688814468274
534,M1K,Dollarama,Discount Store,Toronto,43.72659620252377,-79.26682995710473
535,M1K,Kennedy Ave & Eglinton Ave E,Intersection,Scarborough,43.73213901542009,-79.26837226470258
536,M2K,Forest Grove,Trail,,43.7776830705167,-79.37977012702859
537,M2K,Flowers & Blossoms Inc.,Flower Shop,Toronto,43.776826613497164,-79.37815189361572
538,M2K,The Park,Park,Toronto,43.783171,-79.383108
539,M3K,Toronto Downsview Airport (YZD),Airport,Toronto,43.738882611749744,-79.47011109314882
540,M3K,Tim Hortons,Coffee Shop,Toronto,43.73889029805241,-79.47224241624076
541,M3K,Fly By (Bombardier),Snack Place,,43.737631678660755,-79.46905639949065
542,M3K,Main Cafeteria (Bombardier),Food Court,,43.73793098976079,-79.47114380227413
543,M3K,Work Authority Truck,Shoe Store,Toronto,43.7383523197837,-79.47189635426082
544,M4K,Pantheon,Greek Restaurant,Toronto,43.67762124481265,-79.35143390043564
545,M4K,Dolce Gelato,Ice Cream Shop,Toronto,43.677772998450614,-79.35118737317053
546,M4K,7 Numbers,Italian Restaurant,Toronto,43.677061774959824,-79.35393428891682
547,M4K,MenEssentials,Cosmetics Shop,Toronto,43.677820068604575,-79.35126543045044
548,M4K,The Auld Spot Pub,Pub,Toronto,43.67733505610778,-79.35312964755529
549,M4K,Messini Authentic Gyros,Greek Restaurant,Toronto,43.677827494513096,-79.35056873157725
550,M4K,Moksha Yoga Danforth,Yoga Studio,Toronto,43.67762174479883,-79.3521159367257
551,M4K,Cafe Fiorentina,Italian Restaurant,Toronto,43.677743,-79.350115
552,M4K,Mezes,Greek Restaurant,Toronto,43.6779622615441,-79.35019606997218
553,M4K,Louis Cifer Brew Works,Brewery,Toronto,43.677662745359996,-79.3513125762371
554,M4K,Rikkochez,Restaurant,Toronto,43.677267,-79.353274
555,M4K,Christina's On The Danforth,Greek Restaurant,Toronto,43.678239784878826,-79.34918494943804
556,M4K,La Diperie,Ice Cream Shop,Toronto,43.67753,-79.352295
557,M4K,Broadview Espresso,Café,Toronto,43.67836631426999,-79.35836661201425
558,M4K,Don Valley Trail,Trail,Toronto,43.67633091997674,-79.35392333297455
559,M4K,Sher-E-Punjab,Indian Restaurant,Toronto,43.67730788939673,-79.35306551709385
560,M4K,The Big Carrot Organic Juice Bar,Juice Bar,Toronto,43.677438,-79.352683
561,M4K,Urban Nails,Spa,Toronto,43.676667789021906,-79.35660190332753
562,M4K,Bulk Barn,Grocery Store,Toronto,43.67678989740336,-79.35586511284247
563,M4K,Valley Farm Produce,Fruit & Vegetable Store,Toronto,43.677999294687275,-79.3499690927287
564,M4K,Dough Bakeshop,Bakery,Toronto,43.67664308520287,-79.35684634585105
565,M4K,Caffé Demetre,Dessert Shop,Toronto,43.67768266377745,-79.35160842812537
566,M4K,Tsaa Tea Shop,Bubble Tea Shop,Toronto,43.67776898684133,-79.35130446081268
567,M4K,Alexandros,Greek Restaurant,Toronto,43.67830448799868,-79.34948556208978
568,M4K,Athen's Pastries,Greek Restaurant,Toronto,43.67816589533113,-79.34892679522846
569,M4K,Pan on the Danforth,Greek Restaurant,Toronto,43.678263168189865,-79.34864777195595
570,M4K,Astoria Shish Kebob House,Greek Restaurant,Toronto,43.67768890877185,-79.35189216872803
571,M4K,Detroit Eatery,Diner,Toronto,43.67759437002395,-79.35176144372598
572,M4K,Factory Girl,American Restaurant,Toronto,43.67669287762859,-79.35629876225282
573,M4K,Second Cup,Coffee Shop,Toronto,43.67718757165012,-79.3529747898985
574,M5K,Canoe,Restaurant,Toronto,43.647452066183476,-79.38132001815676
575,M5K,The Fairmont Royal York,Hotel,Toronto,43.64544914616651,-79.3815076529019
576,M5K,Equinox Bay Street,Gym,Toronto,43.64809974034856,-79.37998869411526
577,M5K,Maman,Café,Toronto,43.64830873804684,-79.38225333898805
578,M5K,Starbucks,Coffee Shop,Toronto,43.646935797838935,-79.38442766632808
579,M5K,Sam James Coffee Bar (SJCB),Café,Toronto,43.64788137014028,-79.38433152836829
580,M5K,WVRST,Beer Bar,Toronto,43.64496809087762,-79.38137631843854
581,M5K,King Taps,Gastropub,Toronto,43.648475974183,-79.38205778358744
582,M5K,Union Chicken,Fried Chicken Joint,Toronto,43.64491185903613,-79.38232534702786
583,M5K,Walrus Pub & Beer Hall,Pub,Toronto,43.64737470920577,-79.37951515363918
584,M5K,Design Exchange,Art Gallery,Toronto,43.64797219581623,-79.38010382588462
585,M5K,Ki Modern Japanese + Bar,Japanese Restaurant,Toronto,43.64710349021134,-79.37938978621831
586,M5K,Union Pearson Express,Train Station,Toronto,43.64436200658875,-79.38319927907953
587,M5K,Adelaide Club Toronto,Gym / Fitness Center,Toronto,43.64927944291712,-79.38192123284551
588,M5K,Pilot Coffee Roasters,Coffee Shop,Toronto,43.648835391245896,-79.3809358125033
589,M5K,Olly Fresco's,Deli / Bodega,Toronto,43.646912231909276,-79.37959661696463
590,M5K,Roy Thomson Hall,Concert Hall,Toronto,43.6465886970634,-79.38597899374354
591,M5K,Pumpernickel's Deli,Deli / Bodega,Toronto,43.64883150054619,-79.38197006345457
592,M5K,Earls Kitchen & Bar,Bar,Toronto,43.647945662980305,-79.3837058277153
593,M5K,Pizzeria Libretto,Pizza Place,Toronto,43.64833354686235,-79.38511050184168
594,M5K,Bymark,Restaurant,Toronto,43.647217284018005,-79.38125188166379
595,M5K,Kupfert & Kim (First Canadian Place),Gluten-free Restaurant,Toronto,43.64854659465186,-79.38162406470161
596,M5K,Mos Mos Coffee,Café,Toronto,43.64815919753501,-79.37874450467258
597,M5K,Cactus Club Cafe,American Restaurant,Toronto,43.6495520142626,-79.38167072512041
598,M5K,Bardi's Steak House,Restaurant,Toronto,43.64622,-79.383074
599,M5K,Dineen @CommerceCourt,Coffee Shop,Toronto,43.648250543365556,-79.38012728220869
600,M5K,Balzac's Coffee,Coffee Shop,Toronto,43.644372584148364,-79.38306470027423
601,M5K,McEwan Foods,Deli / Bodega,Toronto,43.64716011126396,-79.38104402548048
602,M5K,Loose Moose Tap & Grill,Sports Bar,Toronto,43.64528061938072,-79.38396600831251
603,M5K,Amano Pasta,Italian Restaurant,Toronto,43.64491852117436,-79.38235777637108
604,M6K,Pharmacy,Bar,Toronto,43.638089904034146,-79.43180974511733
605,M6K,Starbucks,Coffee Shop,Toronto,43.638995,-79.427652
606,M6K,Island Foods,Caribbean Restaurant,Toronto,43.63908160161682,-79.42683538230024
607,M6K,The Abbott,Café,Toronto,43.637996211047366,-79.43071653853734
608,M6K,Chantecler,French Restaurant,Toronto,43.641754575822084,-79.4312263660021
609,M6K,The Workroom,Arts & Crafts Store,Toronto,43.64154136955292,-79.43121671676634
610,M6K,Parkdale,Neighborhood,Toronto,43.64052425904189,-79.43220043623116
611,M6K,Pretty Ugly,Cocktail Bar,Toronto,43.641818909354356,-79.4303681460792
612,M6K,Grand Electric,Mexican Restaurant,Toronto,43.64171366792598,-79.43154546779928
613,M6K,Louie Craft Coffee,Coffee Shop,Toronto,43.639283775543895,-79.42561998986335
614,M6K,Plentea Tea Bar,Tea Room,Toronto,43.642064,-79.428805
615,M6K,The Tempered Room,Bakery,Toronto,43.64131496262071,-79.43314957808886
616,M6K,Miss Thing's,Hawaiian Restaurant,Toronto,43.64155912824447,-79.43196184684483
617,M6K,Pet Valu,Pet Store,Toronto,43.63908935811652,-79.42682834187295
618,M6K,Crown Flora Studio,Gift Shop,Toronto,43.641562955700216,-79.43008019232099
619,M6K,Guu Izakaya,Japanese Restaurant,Toronto,43.641845549029775,-79.43108645308222
620,M6K,Caffino,Italian Restaurant,Toronto,43.63902121044261,-79.42528923382933
621,M6K,Reebok Crossfit Liberty Village,Gym,Toronto,43.637035591932005,-79.42480199455974
622,M6K,Rustic Cosmo,Sandwich Place,Toronto,43.641963199483506,-79.42990295861912
623,M6K,Capital Espresso And Pastries,Café,Toronto,43.64097266938929,-79.43457972642001
624,M6K,The Boreal Gelato Company,Ice Cream Shop,Toronto,43.64180013600689,-79.43104860891893
625,M6K,Shameful Tiki Room,Beach Bar,Toronto,43.64132629712811,-79.43320994405224
626,M6K,SCHOOL Restaurant,Breakfast Spot,Toronto,43.6377753703417,-79.42429737067897
627,M6K,The Well,Chiropractor,Toronto,43.64151083909134,-79.43203007772871
628,M6K,Skyline Restaurant,Diner,Toronto,43.64095872321704,-79.43509991395402
629,M6K,Common Sort,Thrift / Vintage Store,Toronto,43.641029888414444,-79.43461986817455
630,M6K,The Public Butter,Thrift / Vintage Store,Toronto,43.64193836651804,-79.4303990877073
631,M6K,Duggan's Brewery,Brewery,Toronto,43.64155614757265,-79.43221717928108
632,M6K,Shopgirls Gallery Boutique,Accessories Store,Toronto,43.64162533891366,-79.43195234215757
633,M6K,Cadillac Lounge,Lounge,Toronto,43.64194017915918,-79.43066250704618
634,M1L,Tim Hortons,Coffee Shop,Scarborough,43.7162878856343,-79.2833371460438
635,M1L,Warden Ave & St. Clair Ave E,Intersection,Scarborough,43.71205669347002,-79.28100496530533
636,M1L,TTC Bus #68 Warden,Bus Line,Toronto,43.71177810997778,-79.27971412913774
637,M1L,Clairlea Futbol Centre,Soccer Field,,43.71523429184505,-79.28650639185544
638,M1L,TTC Bus 102 Markham Road,Bus Line,Toronto,43.711381420906115,-79.27958752636661
639,M1L,Warden Subway Station,Metro Station,Toronto,43.71122905571982,-79.27960224480387
640,M1L,Bakery On The Go,Bakery,Toronto,43.711270905205765,-79.27950587661704
641,M1L,Tim Hortons,Coffee Shop,Scarborough,43.7162843862256,-79.283337
642,M1L,Cafe on the go,Bakery,Scarborough,43.71115104374148,-79.27946923512921
643,M1L,Warden Ave & Fairfax Cres,Intersection,Toronto,43.716187,-79.282936
644,M1L,Warden Woods Park,Park,,43.71052711027375,-79.27896551895955
645,M2L,York Mills Collegiate Institute Swimming Pool,Pool,Toronto,43.75099421720474,-79.37436489349645
646,M2L,Windfields Cafeteria,Cafeteria,Toronto,43.755862,-79.370649
647,M3L,TCH Montessori,Child Care Service,Windsor,43.73039067096294,-79.50958013534546
648,M3L,Oakdale Golf and Country Club Swimming Pool,Pool,Toronto,43.730928752509904,-79.51612126859987
649,M3L,Banh Mi Saigon,Vietnamese Restaurant,,43.72933125114399,-79.51264577680075
650,M4L,British Style Fish & Chips,Fish & Chips Shop,Toronto,43.66872336908457,-79.31713935234417
651,M4L,The Burger's Priest,Burger Joint,Toronto,43.66661154298639,-79.31553079617778
652,M4L,System Fitness,Gym,Toronto,43.667171452103204,-79.31273345707406
653,M4L,Brett's Ice Cream,Ice Cream Shop,Toronto,43.667222,-79.312831
654,M4L,Woodbine Park,Park,Toronto,43.66486036311473,-79.31510925292969
655,M4L,Godspeed Brewery,Brewery,Toronto,43.67262030152577,-79.31922849103603
656,M4L,LCBO,Liquor Store,Toronto,43.66673150624233,-79.31496605090986
657,M4L,Murphy's Law,Pub,Toronto,43.66731906186093,-79.31265587607287
658,M4L,Casa di Giorgio,Italian Restaurant,Toronto,43.66664527559903,-79.31520351125722
659,M4L,O Sushi,Sushi Restaurant,Toronto,43.66668372330836,-79.3166142781831
660,M4L,The Tulip Steakhouse,Steakhouse,Toronto,43.66634820248808,-79.31685400996346
661,M4L,Pet Valu,Pet Store,Toronto,43.66697917950893,-79.31466465565389
662,M4L,Burrito Bandidos,Burrito Place,Toronto,43.66644546137557,-79.31644740429473
663,M4L,Harvey's,Fast Food Restaurant,Toronto,43.66666258400179,-79.3150811802549
664,M4L,Alliance Cinemas - The Beach,Movie Theater,Toronto,43.666746976047506,-79.31468500467349
665,M4L,Subway,Sandwich Place,Toronto,43.666238,-79.317019
666,M4L,Pizzaiolo,Pizza Place,Toronto,43.66895319839045,-79.31168339331794
667,M4L,Jody's Deli,Sandwich Place,Toronto,43.66894604610645,-79.31163457258732
668,M4L,TTC Streetcar Loop,Light Rail Station,Toronto,43.66645232917386,-79.31645471163147
669,M4L,Country Style,Coffee Shop,Toronto,43.66736023093123,-79.31240424329896
670,M4L,Measurement Park,Park,,43.666916002070764,-79.31263053498228
671,M4L,Supperworks,Food & Drink Shop,Toronto,43.66773719965272,-79.310451509513
672,M5L,Canoe,Restaurant,Toronto,43.647452066183476,-79.38132001815676
673,M5L,The Keg Steakhouse & Bar,Steakhouse,Toronto,43.649937252985254,-79.38419604942506
674,M5L,Equinox Bay Street,Gym,Toronto,43.64809974034856,-79.37998869411526
675,M5L,John & Sons Oyster House,Seafood Restaurant,Toronto,43.65065642537144,-79.38161285228475
676,M5L,Adelaide Club Toronto,Gym / Fitness Center,Toronto,43.64927944291712,-79.38192123284551
677,M5L,Maman,Café,Toronto,43.64830873804684,-79.38225333898805
678,M5L,Cactus Club Cafe,American Restaurant,Toronto,43.6495520142626,-79.38167072512041
679,M5L,Estiatorio Volos,Greek Restaurant,Toronto,43.65032912559998,-79.38453301297716
680,M5L,Pilot Coffee Roasters,Coffee Shop,Toronto,43.648835391245896,-79.3809358125033
681,M5L,Brick Street Bakery,Bakery,Toronto,43.6488151631615,-79.38060468610949
682,M5L,King Taps,Gastropub,Toronto,43.648475974183,-79.38205778358744
683,M5L,The Gabardine,American Restaurant,Toronto,43.65098801064232,-79.38122513218154
684,M5L,Sam James Coffee Bar (SJCB),Café,Toronto,43.64788137014028,-79.38433152836829
685,M5L,Hy's Steakhouse,Steakhouse,Toronto,43.649504756476944,-79.38291850488223
686,M5L,Boxcar Social Temperance,Bar,Toronto,43.65055725249405,-79.38195634640063
687,M5L,Assembly Chef's Hall,Food Court,Toronto,43.650578865093934,-79.3834119303614
688,M5L,Pizzeria Libretto,Pizza Place,Toronto,43.64833354686235,-79.38511050184168
689,M5L,Design Exchange,Art Gallery,Toronto,43.64797219581623,-79.38010382588462
690,M5L,Pumpernickel's Deli,Deli / Bodega,Toronto,43.64883150054619,-79.38197006345457
691,M5L,Cafe Landwer,Café,Toronto,43.64875349932059,-79.3853673607289
692,M5L,Rosalinda,Vegetarian / Vegan Restaurant,Toronto,43.650252483069295,-79.38515575620075
693,M5L,Earls Kitchen & Bar,Bar,Toronto,43.647945662980305,-79.3837058277153
694,M5L,Mos Mos Coffee,Café,Toronto,43.64815919753501,-79.37874450467258
695,M5L,Dineen Coffee,Café,Toronto,43.650497,-79.378765
696,M5L,M Square Coffee Co,Coffee Shop,Toronto,43.65121797253777,-79.38355459932247
697,M5L,Kupfert & Kim (First Canadian Place),Gluten-free Restaurant,Toronto,43.64854659465186,-79.38162406470161
698,M5L,Four Seasons Centre for the Performing Arts,Concert Hall,Toronto,43.650592,-79.385806
699,M5L,Dineen @CommerceCourt,Coffee Shop,Toronto,43.648250543365556,-79.38012728220869
700,M5L,DAVIDsTEA,Tea Room,Toronto,43.650546552943766,-79.38338493349875
701,M5L,Bosk at Shangri-La,Asian Restaurant,Toronto,43.649022736761516,-79.38582635521233
702,M6L,Rustic Bakery,Bakery,North York,43.715413998974796,-79.49030028640821
703,M6L,Rustic Massage Therapy and Health Clinic,Massage Studio,Toronto,43.71579838154805,-79.49064373970032
704,M6L,Sporty,Basketball Court,,43.71650314331055,-79.48983764648438
705,M9L,Papa's Ristorante,Italian Restaurant,Toronto,43.760091,-79.558353
706,M9L,Yashi Sports,Sporting Goods Shop,,43.762068517275,-79.55876624223649
707,M9L,DryShield Water Solutions Corp.,Construction & Landscaping,Toronto,43.75913064735531,-79.56118583679199
708,M1M,Tim Hortons,Coffee Shop,Scarborough,43.726658,-79.231484
709,M1M,Shoppers Drug Mart,Pharmacy,Scarborough,43.7255293050729,-79.2313559441764
710,M1M,Vi Pei Bistro - Bluffs,Bistro,Toronto,43.72714826155886,-79.22964018336639
711,M1M,Dairy Queen,Fast Food Restaurant,Scarborough,43.722757687671276,-79.23562467098236
712,M1M,Subway,Sandwich Place,Scarborough,43.7267415276209,-79.23261160083861
713,M1M,TD Canada Trust,Bank,Scarborough,43.7274727,-79.2292926
714,M1M,Dairy Queen Ltd Brazier,Fast Food Restaurant,Scarborough,43.7226367,-79.2354522
715,M1M,Pizza Pizza,Pizza Place,Scarborough,43.722490904836995,-79.23527706203652
716,M1M,LCBO,Liquor Store,Toronto,43.725183,-79.232039
717,M1M,Canadiana flowers,Flower Shop,Toronto,43.72688636466345,-79.23015832901001
718,M2M,Lillian Park,Playground,North York,43.79544662005568,-79.41047443923324
719,M3M,Blue Sail Energy Solutions,Business Service,Toronto,43.7314450238841,-79.49378728866577
720,M3M,Roding Park,Baseball Field,,43.728655041194294,-79.49291760986993
721,M4M,District 28,Coworking Space,Toronto,43.65517388160507,-79.34059760137761
722,M4M,Mayfair Racquet and Fitness Clubs,Gym,Toronto,43.65370736853231,-79.33874219198448
723,M4M,Jimmie Simpson Park,Park,Toronto,43.65922968838468,-79.3450629597167
724,M4M,Tim Hortons,Coffee Shop,Toronto,43.6543669,-79.3373594
725,M4M,Showline Studios,Performing Arts Venue,Toronto,43.655998073419916,-79.33473155784823
726,M4M,McCleary Park,Baseball Field,Toronto,43.65211581663814,-79.34086501676951
727,M4M,Beech Nursery,Garden Center,,43.653175554038356,-79.33631589566951
728,M5M,Aroma Espresso Bar,Café,Toronto,43.73597504480755,-79.42039080887425
729,M5M,Sakura Garden,Sushi Restaurant,Toronto,43.73339792581388,-79.41949129828605
730,M5M,Darbar Persian Grill,Restaurant,North York,43.735484,-79.420006
731,M5M,Starbucks,Coffee Shop,Toronto,43.7325643756872,-79.4192305175256
732,M5M,Tim Hortons,Coffee Shop,North York,43.735355956224325,-79.41960454261636
733,M5M,Francobollo,Italian Restaurant,Toronto,43.734556923055784,-79.41954908679143
734,M5M,Drums N Flats,Comfort Food Restaurant,Toronto,43.73503512478632,-79.42003978035157
735,M5M,The Copper Chimney,Indian Restaurant,Toronto,43.73619518432498,-79.42027081330127
736,M5M,Pheasant & Firkin,Pub,Toronto,43.73517255469138,-79.41970208136466
737,M5M,Freshii,Juice Bar,Toronto,43.731582455410454,-79.41910939095219
738,M5M,LCBO,Liquor Store,Toronto,43.73106478660271,-79.41923740055336
739,M5M,Satay on the Road,Thai Restaurant,Toronto,43.735310312009226,-79.41978338676937
740,M5M,Karbouzi Greek Taverna,Greek Restaurant,Toronto,43.7362044620751,-79.42035885441898
741,M5M,Bruno's Fine Food,Butcher,Toronto,43.7366419570093,-79.4198699051871
742,M5M,Dino's No Frills,Grocery Store,Toronto,43.73048664218584,-79.41870350421509
743,M5M,Shoppers Drug Mart,Pharmacy,Toronto,43.73627469604449,-79.41999933309785
744,M5M,Subway,Sandwich Place,Toronto,43.73159539578682,-79.41963959053555
745,M5M,Safari Bar and Grill,American Restaurant,Toronto,43.72905148409205,-79.41810862863923
746,M5M,Il Fornaro,Italian Restaurant,Toronto,43.734073,-79.41987
747,M5M,McDonald's,Fast Food Restaurant,Toronto,43.73259250589356,-79.41966584226944
748,M5M,Pizza Pizza,Pizza Place,Toronto,43.731952,-79.415019
749,M5M,Eggsmart,Breakfast Spot,Toronto,43.734886,-79.419632
750,M5M,Harvey's & Swiss Chalet,Fast Food Restaurant,North York,43.730165663862444,-79.41867411150258
751,M6M,Tim Hortons,Coffee Shop,North York,43.6957213925918,-79.48775097727776
752,M6M,Trethewey Park,Playground,,43.69452081617517,-79.48638589534515
753,M6M,McDonald's,Fast Food Restaurant,Mississauga,43.69377450657849,-79.48008613751588
754,M6M,McDonald's,Fast Food Restaurant,,43.692926495448766,-79.47998177868274
755,M9M,Panino Cappuccino,Café,Toronto,43.7383895,-79.5393467
756,M9M,Tim Hortons,Coffee Shop,Toronto,43.73375733224589,-79.5366146448666
757,M9M,Dollar Tree,Discount Store,North York,43.73918047709298,-79.53900240275159
758,M9M,Mi Pueblo,Latin American Restaurant,Toronto,43.739466575344274,-79.53889811118543
759,M9M,Shell's Food Store,Grocery Store,North York,43.7401206464892,-79.5402264474719
760,M9M,Las Brisas Del Mar,Nightclub,Toronto,43.73636484222052,-79.53489517642417
761,M1N,The Birchcliff,Café,Toronto,43.69166644406541,-79.26453158481682
762,M1N,Birchmount Community Centre,General Entertainment,Toronto,43.69517507509799,-79.26216087070237
763,M1N,Scarborough Gardens,Skating Rink,Toronto,43.6946465192162,-79.26223031725522
764,M1N,Birchmount Stadium,College Stadium,Scarborough,43.695322867712626,-79.26129341125488
765,M2N,The Keg,Steakhouse,Toronto,43.7665789176648,-79.41213141222555
766,M2N,Konjiki Ramen,Ramen Restaurant,Toronto,43.76699771023422,-79.41222209328754
767,M2N,Satay Sate,Indonesian Restaurant,North York,43.76669,-79.4121
768,M2N,Starbucks,Coffee Shop,Toronto,43.7681923488525,-79.41302061080933
769,M2N,Loblaws,Grocery Store,North York,43.768648243223105,-79.41259737496199
770,M2N,Saryo,Café,Toronto,43.76693,-79.41206
771,M2N,Toronto Centre for the Arts,Theater,Toronto,43.766228257307354,-79.41411495208739
772,M2N,MYMY Chicken,Fried Chicken Joint,Toronto,43.76465797243293,-79.41109575340602
773,M2N,Cineplex Cinemas Empress Walk,Movie Theater,Toronto,43.76862539839479,-79.41261307104753
774,M2N,Sushi Moto Sake & Wine Bar,Sushi Restaurant,Toronto,43.76390159157955,-79.41155904521092
775,M2N,Aroma Espresso Bar,Café,North York,43.76944882099181,-79.41308107735675
776,M2N,Mel Lastman Square,Plaza,North York,43.76770145783431,-79.41297541544051
777,M2N,GoodLife Fitness North York Madison Centre,Gym,North York,43.76489546881941,-79.41193614225881
778,M2N,Jack Astor's Bar & Grill,Restaurant,Toronto,43.76709662310871,-79.41226301488
779,M2N,Bake Code 烘焙密碼,Bakery,Toronto,43.763968809039525,-79.41164099097621
780,M2N,Pizzaiolo,Pizza Place,Toronto,43.76428931934003,-79.41177961294926
781,M2N,Michaels,Arts & Crafts Store,Toronto,43.76724487394571,-79.41197372883607
782,M2N,Aura,Lounge,Toronto,43.766012799364795,-79.41081286441447
783,M2N,Starbucks,Coffee Shop,Toronto,43.768627,-79.4131
784,M2N,PetSmart,Pet Store,Toronto,43.769139,-79.412522
785,M2N,Douglas Snow Aquatic Centre,Pool,North York,43.767317139739454,-79.41498164406656
786,M2N,Subway,Sandwich Place,Toronto,43.768175813865255,-79.41367417969296
787,M2N,Union Social Eatery,Restaurant,Toronto,43.76379660470405,-79.4113584939484
788,M2N,Sushi One,Japanese Restaurant,Toronto,43.76441166173842,-79.41187984957911
789,M2N,Baton Rouge,American Restaurant,North York,43.76645494997892,-79.41222941305855
790,M2N,Dairy Queen (Treat),Ice Cream Shop,North York,43.76701557770687,-79.4120009150447
791,M2N,The Fry,Fried Chicken Joint,,43.76299303331066,-79.41144153878865
792,M2N,Empress Walk,Shopping Mall,North York,43.768540252857974,-79.4126707082784
793,M2N,Tim Hortons,Coffee Shop,North York,43.7655556,-79.4122337
794,M2N,Wendy's,Fast Food Restaurant,North York,43.76846127243853,-79.4123771060805
795,M3N,Pho Com Viet Nam,Vietnamese Restaurant,Toronto,43.75663119859895,-79.51833633068185
796,M3N,Shoppers Drug Mart,Pharmacy,North York,43.75622708271816,-79.51591072964472
797,M3N,Pizza Hut,Pizza Place,Toronto,43.75633958118749,-79.51781778764257
798,M3N,KFC,Fast Food Restaurant,North York,43.75654938439709,-79.51904211675189
799,M3N,No Frills,Grocery Store,North York,43.75926044271617,-79.51892671819911
800,M3N,Popeyes Louisiana Kitchen,Fried Chicken Joint,Toronto,43.75660425382002,-79.51604685393343
801,M3N,The Beer Store,Beer Store,North York,43.7560941,-79.5162392
802,M3N,Subway,Sandwich Place,Toronto,43.7564925327839,-79.5182789718356
803,M3N,Tim Hortons,Coffee Shop,North York,43.7561239822748,-79.515263736248
804,M3N,Pizza Pizza,Pizza Place,North York,43.756185976894656,-79.5154595375061
805,M3N,Planet Fitness,Gym / Fitness Center,,43.757538,-79.51961
806,M3N,Jian Hing Supermarket,Grocery Store,Toronto,43.75667320052111,-79.51844367991136
807,M3N,LCBO,Liquor Store,Toronto,43.759256617873106,-79.51945388294175
808,M3N,Dollarama,Discount Store,North York,43.75931883562195,-79.51843269938222
809,M3N,Yorkgate Mall,Shopping Mall,North York,43.75866403784837,-79.51964054966928
810,M3N,Living Well,Caribbean Restaurant,North York,43.756460538385106,-79.51598949881128
811,M3N,Jane Finch Mall,Shopping Mall,Toronto,43.756611889504924,-79.51629147096202
812,M4N,Lawrence Park Ravine,Park,Toronto,43.72696303913755,-79.39438246708775
813,M4N,The Photo School – Toronto,Photography Studio,Toronto,43.730429240438326,-79.38876673579216
814,M6N,Rainhard Brewing,Brewery,Toronto,43.67269006118166,-79.47867903828485
815,M6N,Shacklands Brewing,Brewery,Toronto,43.67295080687277,-79.47864755988121
816,M6N,Modern Sensibility,Furniture / Home Store,Toronto,43.67809164925885,-79.48476433753967
817,M6N,Henrietta Park,Park,Toronto,43.67141626805629,-79.48145926898869
818,M6N,Junction Craft Brewing,Brewery,Toronto,43.67329938917178,-79.47839140892029
819,M6N,The Monkey Vault,Athletics & Sports,Toronto,43.672319023522476,-79.47879537517305
820,M9N,Elm Park,Park,,43.70613889238497,-79.51586870967138
821,M9N,Grattan Park,Park,,43.70622161954314,-79.52170483861298
822,M1P,Calabria Bakery,Bakery,Scarborough,43.7616699583205,-79.26950674263456
823,M1P,Magnotta,Wine Shop,Toronto,43.761333,-79.269139
824,M1P,Roll N Bowl Korean & Japanese Cuisine,Asian Restaurant,Scarborough,43.764656,-79.27101
825,M2P,TD Canada Trust Branch and ATM,Bank,North York,43.7509235,-79.4010039
826,M2P,Tron Electrical and Lighting Control Solutions,Electronics Store,Toronto,43.749366183666105,-79.39720630645752
827,M2P,Tournament Park,Park,Toronto,43.75125720420175,-79.39971685409546
828,M4P,Sherwood Park,Park,Toronto,43.71655100307589,-79.38777567141624
829,M4P,Summerhill Market North,Food & Drink Shop,Toronto,43.71549914910689,-79.39288125988016
830,M4P,Homeway Restaurant & Brunch,Breakfast Spot,Toronto,43.71264120397444,-79.39155655199944
831,M4P,Dogs Off-Leash Area,Dog Run,Toronto,43.71658934061667,-79.38424587249756
832,M4P,Gym,Gym,Toronto,43.71312601210131,-79.39353747528043
833,M4P,Winners,Clothing Store,,43.71323606413252,-79.3938728363979
834,M5P,Kay Gardner Beltline Trail,Trail,Toronto,43.700726252588964,-79.4101006611444
835,M5P,TTC Bus #14 Glencairn,Bus Line,Toronto,43.70022082088619,-79.41027359709935
836,M5P,Gerflor Canada,Home Service,Etobicoke,43.69955814990594,-79.41636800765991
837,M6P,Lithuania Park,Park,Toronto,43.658666653470426,-79.46303844451904
838,M9P,Mayflower Chinese Food,Chinese Restaurant,Toronto,43.69275315666511,-79.53156594082111
839,M9P,Starbucks,Coffee Shop,Toronto,43.69624895488774,-79.533117271768
840,M9P,Subway,Sandwich Place,Toronto,43.69292687319966,-79.5314711469564
841,M9P,Pizza Hut,Pizza Place,Etobicoke,43.69643127748791,-79.53323325309887
842,M9P,Pizza Nova,Pizza Place,Toronto,43.69281687469844,-79.53156995754804
843,M9P,Metro,Supermarket,Etobicoke,43.69141434356751,-79.53114839497418
844,M9P,2 Bros Cuisine,Middle Eastern Restaurant,Toronto,43.69249918005648,-79.53169763088226
845,M9P,Dollarama,Discount Store,Toronto,43.691711261562375,-79.53180600463904
846,M9P,Baskin Robbins,Ice Cream Shop,Toronto,43.69154676061439,-79.53170170483699
847,M1R,Scarborough Garage Door Repair,Auto Garage,Scarborough,43.75128820404063,-79.30150777101517
848,M1R,Warden Ave & Manhattan Dr,Intersection,Toronto,43.751614,-79.29786
849,M1R,Express Convenience,Convenience Store,Toronto,43.754732551782645,-79.29789911186526
850,M2R,Tim Hortons,Coffee Shop,North York,43.7809395,-79.4442308
851,M2R,Antibes Swimming Pool,Pool,Toronto,43.780936,-79.446804
852,M2R,Antibes Park,Park,Toronto,43.77887169410913,-79.44870471954346
853,M2R,Nikken Independent Wellness Consultant,Gym / Fitness Center,North York,43.780405458665726,-79.4483184814453
854,M4R,St. Clements - Yonge Parkette,Park,,43.71206179547874,-79.40425523454469
855,M4R,NTCC Swimming Pool,Gym Pool,Toronto,43.710552812924895,-79.40578561334489
856,M4R,Lytton Park,Playground,,43.714954491867296,-79.4119695364535
857,M4R,Rosalind's Garden Oasis,Garden,Toronto,43.71218888050602,-79.41197784736922
858,M5R,Rose & Sons,American Restaurant,Toronto,43.6756684758828,-79.40361659752443
859,M5R,Ezra's Pound,Café,Toronto,43.67515283323029,-79.40585846415303
860,M5R,Big Crow,BBQ Joint,Toronto,43.675896076491284,-79.40368028354095
861,M5R,Playa Cabana,Mexican Restaurant,Toronto,43.67611179256714,-79.4012790354265
862,M5R,Live Organic Food Bar,Vegetarian / Vegan Restaurant,Toronto,43.67505287052667,-79.40671518307245
863,M5R,Roti Cuisine of India,Indian Restaurant,Toronto,43.67461834990478,-79.40824866273744
864,M5R,Le Paradis,French Restaurant,Toronto,43.67500732033419,-79.40003625111297
865,M5R,Mistura,Italian Restaurant,Toronto,43.67428461619599,-79.398425962694
866,M5R,Madame Boeuf And Flea,Burger Joint,Toronto,43.67524,-79.40662
867,M5R,Haute Coffee,Café,Toronto,43.675817902127925,-79.40279309076072
868,M5R,Pour House,Pub,Toronto,43.675640867179204,-79.40382084040043
869,M5R,Magic Oven,Pizza Place,Toronto,43.6748946772507,-79.40699407078071
870,M5R,Jean Sibelius Square,Park,Toronto,43.67142628683921,-79.40883090368688
871,M5R,Toronto Archives,History Museum,Toronto,43.67644734460629,-79.40750861881347
872,M5R,The Annex Hodgepodge,Sandwich Place,Toronto,43.674975198818274,-79.40654256081908
873,M5R,LCBO,Liquor Store,Toronto,43.675344431726565,-79.40532725232431
874,M5R,Aviv,Jewish Restaurant,Toronto,43.674553,-79.409043
875,M5R,Subway,Sandwich Place,Toronto,43.674965,-79.406868
876,M5R,Tim Hortons,Coffee Shop,Toronto,43.67579963362535,-79.40353178302757
877,M5R,Martino's Pizza,Pizza Place,Toronto,43.67555992434719,-79.40355789179394
878,M5R,Subway,Sandwich Place,Toronto,43.674405254653074,-79.39986257426862
879,M5R,Shoppers Drug Mart,Pharmacy,Toronto,43.674959,-79.407986
880,M5R,Beauty Boutique by Shoppers Drug Mart,Cosmetics Shop,Toronto,43.67471486426238,-79.40777572566179
881,M5R,Super Jet International Coffee Shop,Coffee Shop,Toronto,43.674331761282474,-79.40932490176829
882,M5R,Davenport Garden Centre,Flower Shop,Toronto,43.67585107911928,-79.4018936520866
883,M5R,Figures,American Restaurant,Toronto,43.67379121924397,-79.39757752425066
884,M5R,Blinds To Go,Furniture / Home Store,Toronto,43.674163,-79.398606
885,M5R,Sopra Upper Lounge,Restaurant,Toronto,43.674323824255254,-79.39832776659178
886,M6R,Barque Smokehouse,BBQ Joint,Toronto,43.648056674430094,-79.4495705745465
887,M6R,Pizzeria Defina,Pizza Place,Toronto,43.648722638277675,-79.44985455915354
888,M6R,Mabel's Bakery,Bakery,Toronto,43.648707235576516,-79.44992146507896
889,M6R,The Ace,American Restaurant,Toronto,43.646144199851925,-79.44886018312049
890,M6R,The Mercantile,Gourmet Shop,Toronto,43.64794843787414,-79.44956275902172
891,M6R,Lit Espresso Bar,Coffee Shop,Toronto,43.64584589665229,-79.44882985644458
892,M6R,The Dizzy Gastro Sports Pub,Gastropub,Toronto,43.6483056117907,-79.44964625984929
893,M6R,The Chocolateria,Dessert Shop,Toronto,43.64992822697901,-79.45043667719423
894,M6R,Barque Butcher Bar,Butcher,Toronto,43.64764077822067,-79.44948581202844
895,M6R,Café Polonez,Eastern European Restaurant,Toronto,43.645113109705804,-79.44851660549037
896,M6R,Domani Restaurant & Wine Bar,Italian Restaurant,Toronto,43.649235,-79.450229
897,M6R,Inter Steer,Eastern European Restaurant,Toronto,43.64979631005809,-79.45030983497107
898,M6R,Ed's Real Scoop,Ice Cream Shop,Toronto,43.64493193175704,-79.44846130053051
899,M6R,Sushi On Roncy,Sushi Restaurant,Toronto,43.647862405268434,-79.44949300964225
900,M6R,Cider House,Restaurant,Toronto,43.65068788125521,-79.45068513648656
901,M6R,La Cubana,Cuban Restaurant,Toronto,43.65091223991817,-79.45090936982271
902,M6R,DAVIDsTEA,Tea Room,Toronto,43.647379730216116,-79.44939136505127
903,M6R,Another Story Bookshop,Bookstore,Toronto,43.64854385366879,-79.4498274688279
904,M6R,Revue Cinema,Movie Theater,Toronto,43.65111215463428,-79.4509612383593
905,M6R,Reunion Island Coffee Bar,Coffee Shop,Toronto,43.65046251706493,-79.45060981846792
906,M6R,Extra Butter,Café,,43.64753717441561,-79.44946908275794
907,M6R,De La Mer,Fish Market,Toronto,43.64777348396022,-79.4495822604021
908,M6R,Qi Natural Food,Food & Drink Shop,Toronto,43.64581683069303,-79.44881046692572
909,M6R,A Good Read,Bookstore,Toronto,43.64947021007538,-79.450339
910,M6R,The Westerly,Restaurant,Toronto,43.651195234738395,-79.45091743165031
911,M6R,The Local Pub and Restaurant,Bar,Toronto,43.6510171734011,-79.45091108743782
912,M6R,Aris Place,American Restaurant,Toronto,43.646075591799324,-79.44884027778438
913,M6R,Scout,Gift Shop,Toronto,43.65097043195477,-79.45086621885267
914,M6R,Likely General,Gift Shop,Toronto,43.65062189632695,-79.45063525580188
915,M6R,the Friendly Thai,Thai Restaurant,Toronto,43.64590686300198,-79.4488919470859
916,M9R,Gourmet Express,Chinese Restaurant,Toronto,43.69311138097989,-79.55729392261416
917,M9R,Subway,Sandwich Place,Etobicoke,43.69318424107297,-79.55725158723564
918,M9R,The Beer Store,Beer Store,Etobicoke,43.6933138,-79.5572835
919,M9R,Shoppers Drug Mart,Pharmacy,Etobicoke,43.69329615147781,-79.55714373741019
920,M9R,TD Canada Trust,Bank,Etobicoke,43.6939219,-79.5574106
921,M9R,Pizza Pizza,Pizza Place,Etobicoke,43.69321312231725,-79.55729000271057
922,M9R,TTC Bus 45 Kipling,Bus Line,Toronto,43.69090730623053,-79.55706596374512
923,M9R,Martingrove Fish and Chips,American Restaurant,Toronto,43.690537,-79.561878
924,M9R,Rogers,Mobile Phone Shop,Etobicoke,43.69262,-79.557402
925,M9R,Food Basics,Supermarket,Etobicoke,43.69356062698337,-79.55740524896947
926,M9R,Westway Centre,Shopping Mall,Toronto,43.69342526936401,-79.55758635011445
927,M1S,Panagio's Breakfast & Lunch,Breakfast Spot,Scarborough,43.79237001092506,-79.26020325805978
928,M1S,Commander Arena,Skating Rink,Toronto,43.794867324063404,-79.26798888527924
929,M1S,Ding Tai Fung Shanghai Dim Sum 鼎泰豐,Shanghai Restaurant,Scarborough,43.796615229023466,-79.26984392805066
930,M1S,Commander Badminton,Badminton Court,Scarborough,43.79354608557784,-79.26983515808065
931,M4S,Jules Cafe Patisserie,Dessert Shop,Toronto,43.70413799694304,-79.38841260442167
932,M4S,Marigold Indian Bistro,Indian Restaurant,Toronto,43.702880859375,-79.38800811767578
933,M4S,Thobors Boulangerie Patisserie Café,Café,Toronto,43.704513877453266,-79.38861602551758
934,M4S,June Rowlands Park,Park,Toronto,43.70051698238234,-79.38918866607341
935,M4S,XO Gelato,Dessert Shop,Toronto,43.70517671239303,-79.3887930388649
936,M4S,Florentia Ristorante,Italian Restaurant,Toronto,43.703594,-79.3879846
937,M4S,Bread and Butter,Sandwich Place,Toronto,43.70158248227423,-79.3873587869354
938,M4S,Thai Spicy House,Thai Restaurant,Toronto,43.7019616162845,-79.3875129672506
939,M4S,GoodLife Fitness Toronto Mount Pleasant and Davisville,Gym,Toronto,43.69808672126917,-79.38727435367427
940,M4S,Hazel's Diner,Diner,Toronto,43.70210267511542,-79.3876176468172
941,M4S,Zee Grill,Seafood Restaurant,Toronto,43.70498511291793,-79.38847622354874
942,M4S,Sakae Sushi,Sushi Restaurant,Toronto,43.70494407149989,-79.38870408604551
943,M4S,Starving Artist,Restaurant,Toronto,43.701538,-79.38724
944,M4S,Positano,Italian Restaurant,Toronto,43.704558,-79.38863854
945,M4S,Mastermind Toys,Toy / Game Store,Toronto,43.704839243420075,-79.38854629838522
946,M4S,Apple Tree Farmer's Market,Farmers Market,Toronto,43.70032613903132,-79.38976045544334
947,M4S,Subway,Sandwich Place,Toronto,43.70174172309233,-79.38759973282761
948,M4S,Meow Cat Cafe,Café,Toronto,43.702927,-79.38819
949,M4S,KFC,Fast Food Restaurant,Toronto,43.69934481132969,-79.38666108965266
950,M4S,Second Cup,Coffee Shop,Toronto,43.704344001380505,-79.38865888961692
951,M4S,Tim Hortons,Coffee Shop,Toronto,43.6988414,-79.3863963
952,M5S,Yasu,Japanese Restaurant,Toronto,43.66283719650635,-79.40321739973975
953,M5S,Piano Piano,Italian Restaurant,Toronto,43.66294872979362,-79.40289804116937
954,M5S,Rasa,Restaurant,,43.662756751275445,-79.40398803188654
955,M5S,The Dessert Kitchen,Dessert Shop,Toronto,43.66282317865166,-79.40274569154498
956,M5S,Athletic Centre,College Gym,Toronto,43.66248699305214,-79.40065676565847
957,M5S,Almond Butterfly,Bakery,Toronto,43.66283554072087,-79.40336494731255
958,M5S,Bakka Phoenix Books,Bookstore,Toronto,43.662958633796144,-79.40260149079198
959,M5S,Hart House Theatre,Theater,Toronto,43.66357134217992,-79.3946163990837
960,M5S,Her Father's Cider Bar + Kitchen,Beer Bar,Toronto,43.66244824890102,-79.40470324675829
961,M5S,Cafe Cancan,French Restaurant,Toronto,43.662735486588865,-79.40344738555669
962,M5S,Gyubee,Japanese Restaurant,Toronto,43.66708824997601,-79.4005710246546
963,M5S,Innis Cafe,Café,Toronto,43.665401003815745,-79.39971478706231
964,M5S,Harbord Bakery & Calandria,Bakery,Toronto,43.662519096022976,-79.40444270567404
965,M5S,Coach House Printing,Bookstore,Toronto,43.66631964001284,-79.40027745050322
966,M5S,Harvest Kitchen,Restaurant,Toronto,43.662713770749434,-79.40433001263669
967,M5S,Innis Town Hall,College Arts Building,Toronto,43.66541957367295,-79.39954635185894
968,M5S,River Tai Restaurant,Chinese Restaurant,Toronto,43.66290213,-79.403167
969,M5S,A & C Games,Video Game Store,Toronto,43.66493880046117,-79.40319438893309
970,M5S,Second Cup,Coffee Shop,Toronto,43.66267187452542,-79.39848816597433
971,M5S,FLOCK Rotisserie + Greens,Comfort Food Restaurant,Toronto,43.66263716795857,-79.4037981720113
972,M5S,Second Cup Coffee Co.,Café,Toronto,43.66535,-79.398376
973,M5S,Hart House Gym,Gym,Toronto,43.66417202442517,-79.39488839857401
974,M5S,Second Cup,Café,Toronto,43.66355135916493,-79.40178748741704
975,M5S,Red Fish Blue Fish Creative Cafe,Café,Toronto,43.662826909852434,-79.40281748771667
976,M5S,Magic Noodle,Noodle House,Toronto,43.66272766027783,-79.4036022699349
977,M5S,Charlie's Gallery,Bar,Toronto,43.662809819602124,-79.40382164131282
978,M5S,East of Brunswick,Pub,Toronto,43.66560880777417,-79.40332426293872
979,M5S,The Beer Store,Beer Store,Toronto,43.6653855,-79.4034771
980,M6S,The Good Fork,Food,Toronto,43.64956534036813,-79.48402270694602
981,M6S,DAVIDsTEA,Tea Room,Toronto,43.65058422430476,-79.47885289769167
982,M6S,Coffee Tree Roastery,Café,Toronto,43.64964735112305,-79.48343639040918
983,M6S,The One That Got Away,Fish & Chips Shop,Toronto,43.64984188412754,-79.48261453424496
984,M6S,Asa Sushi,Sushi Restaurant,Toronto,43.64990164450559,-79.4846109228881
985,M6S,Fat Bastard Burrito,Burrito Place,,43.6497791550768,-79.48289414342419
986,M6S,Yumi Sushi,Sushi Restaurant,Toronto,43.64989127391365,-79.4824044490675
987,M6S,Book City (Bloor West),Bookstore,Toronto,43.65021080519715,-79.48122019699115
988,M6S,Baka Gallery Cafe,Café,Toronto,43.65103966439781,-79.47760530158712
989,M6S,Bryden's Pub,Pub,Toronto,43.64925890136825,-79.4846509607823
990,M6S,Bloom Restaurant,Latin American Restaurant,Toronto,43.65030692996379,-79.4798355748952
991,M6S,Wibke's Espresso Bar,Coffee Shop,Toronto,43.64913158497341,-79.48480237071465
992,M6S,Max's Market,Gourmet Shop,Toronto,43.65052462233729,-79.47914453187883
993,M6S,Bread & Roses Bakery Cafe,Bakery,Toronto,43.651194318292276,-79.47665677628656
994,M6S,Queen's Pasta Café,Italian Restaurant,Toronto,43.65070658803776,-79.47797787214411
995,M6S,Falafel World,Falafel Restaurant,Toronto,43.649800784968164,-79.48272777159343
996,M6S,Amber European Restaurant,French Restaurant,Toronto,43.64994563414707,-79.48200902277628
997,M6S,New Balance Toronto,Shoe Store,Toronto,43.65095377580209,-79.4773976977124
998,M6S,Simply Thai,Thai Restaurant,Toronto,43.65078180371,-79.47760089101641
999,M6S,Shakey's Original Bar & Grill,Gastropub,Toronto,43.6507708866875,-79.47758071386558
1000,M6S,Booster Juice,Smoothie Shop,Toronto,43.64980188,-79.4836826
1001,M6S,Zaza Espresso Bar & Gelato,Café,Toronto,43.65110626640462,-79.4777101044724
1002,M6S,Awai,Vegetarian / Vegan Restaurant,Toronto,43.65041203760419,-79.47847723960876
1003,M6S,Goodfellas Wood Oven Pizza,Italian Restaurant,,43.648224,-79.486356
1004,M6S,Ali Baba's,Falafel Restaurant,Toronto,43.65100956228928,-79.4771792559058
1005,M6S,Humber Cinema,Indie Movie Theater,Toronto,43.64911832002547,-79.48481789910943
1006,M6S,The Works,Restaurant,Toronto,43.6509254192366,-79.47732341187151
1007,M6S,Bukhara indian cuisine,Indian Restaurant,Toronto,43.65110529992475,-79.47710362509072
1008,M6S,Subway,Sandwich Place,Toronto,43.64951660399756,-79.48394719746555
1009,M6S,Java Joe's,Café,Toronto,43.650424,-79.479755
1010,M1T,The Royal Chinese Restaurant 避風塘小炒,Chinese Restaurant,Toronto,43.78050473445372,-79.29884391314476
1011,M1T,Remezzo Italian Bistro,Italian Restaurant,Scarborough,43.778649,-79.308264
1012,M1T,Kub Khao,Thai Restaurant,Scarborough,43.780437780734204,-79.2998370364667
1013,M1T,Little Caesars,Pizza Place,Toronto,43.78056271894292,-79.2986242771319
1014,M1T,KFC,Fast Food Restaurant,Scarborough,43.77943993243305,-79.30337149356963
1015,M1T,Popeyes Louisiana Kitchen,Fried Chicken Joint,Toronto,43.780476,-79.29846
1016,M1T,Enterprise Rent-A-Car,Rental Car Location,Scarborough,43.77937,-79.30653
1017,M1T,Rexall,Pharmacy,,43.78073190083844,-79.2982568317862
1018,M1T,Rexall,Pharmacy,Scarborough,43.78036862797346,-79.29814242819623
1019,M1T,Gusto Pizza,Pizza Place,Toronto,43.78360724036883,-79.29898327417831
1020,M1T,TTC Stop #7154/5,Bus Stop,Toronto,43.7808523815725,-79.29785496387679
1021,M4T,Sobeys Urban Fresh,Grocery Store,Toronto,43.68867787962371,-79.39086883114751
1022,M4T,Rosehill Reservoir,Park,Toronto,43.68630352898223,-79.38813304564451
1023,M4T,New Thai Restaurant,Thai Restaurant,Toronto,43.68886917362422,-79.39116302160036
1024,M4T,Pure Fitness,Gym,Toronto,43.693006599930136,-79.38778127126965
1025,M4T,Moore Park Tennis Club,Tennis Court,Toronto,43.693289308734215,-79.38289953522846
1026,M4T,Moorevale Park,Playground,Toronto,43.693609879336925,-79.38346507970056
1027,M5T,The Moonbean Cafe,Café,Toronto,43.65414662211733,-79.40018175516231
1028,M5T,Essence of Life Organics,Organic Grocery,Toronto,43.65411067840614,-79.4004308758787
1029,M5T,Banh Mi Nguyen Huong,Vietnamese Restaurant,Toronto,43.653628006211044,-79.3983759881993
1030,M5T,Seven Lives - Tacos y Mariscos,Mexican Restaurant,Toronto,43.65441817160925,-79.40054467846261
1031,M5T,Little Pebbles,Coffee Shop,Toronto,43.654883,-79.400264
1032,M5T,FIKA Cafe,Café,Toronto,43.653560276835684,-79.40040209660836
1033,M5T,Saigon Lotus Restaurant,Vietnamese Restaurant,Toronto,43.654310800343325,-79.39922450076845
1034,M5T,Kensington Food Market,Farmers Market,Toronto,43.654058473740236,-79.40037565547179
1035,M5T,El Rey,Cocktail Bar,Toronto,43.652764,-79.400048
1036,M5T,Millie Creperie,Dessert Shop,Toronto,43.654993860126034,-79.3998292732052
1037,M5T,Blackbird Baking Co,Bakery,Toronto,43.65476385976386,-79.40056588367806
1038,M5T,Rasta Pasta,Caribbean Restaurant,Toronto,43.65420716538317,-79.40046891984555
1039,M5T,Cold Tea,Bar,Toronto,43.65419313416817,-79.40107491108753
1040,M5T,Jimmy's Coffee,Café,Toronto,43.65449315540114,-79.40131090393002
1041,M5T,Dumpling House,Dumpling Restaurant,Toronto,43.65386003934455,-79.3985583639792
1042,M5T,Golden Patty,Caribbean Restaurant,Toronto,43.6546590586465,-79.4011788108254
1043,M5T,Big Trouble,Cocktail Bar,Toronto,43.653257406110924,-79.39654153390033
1044,M5T,Kid Icarus,Arts & Crafts Store,Toronto,43.653933260442265,-79.40171859012935
1045,M5T,Fudao Noodle House,Noodle House,Toronto,43.654645274716124,-79.39887355126278
1046,M5T,Global Cheese,Cheese Shop,Toronto,43.65462257332082,-79.4006057130889
1047,M5T,Torteria San Cosme,Mexican Restaurant,Toronto,43.65470199390117,-79.40064636669985
1048,M5T,Courage My Love,Thrift / Vintage Store,Toronto,43.653248372136495,-79.40015802843716
1049,M5T,Meeplemart,Gaming Cafe,Toronto,43.65162799198926,-79.39741037259144
1050,M5T,½ oz. Cocktail Emporium,Liquor Store,Toronto,43.653371463735276,-79.40021853715685
1051,M5T,Asian Legend 味香村,Chinese Restaurant,Toronto,43.65360271388312,-79.39504693953127
1052,M5T,Toronto Popcorn Co,Snack Place,Toronto,43.65502850858242,-79.39950090464713
1053,M5T,Swatow Restaurant 汕頭小食家,Chinese Restaurant,Toronto,43.65386562507761,-79.39833353339202
1054,M5T,Hanabusa Cafe,Café,Toronto,43.654643265757464,-79.40062636492314
1055,M5T,Ajisen Ramen 味千拉麵,Ramen Restaurant,Toronto,43.65391272417607,-79.39859327119643
1056,M5T,Sonic Boom,Record Shop,Toronto,43.650858882525974,-79.39698455156606
1057,M1V,I.D.A. - BRMC Pharmacy,Pharmacy,Scarborough,43.8211207,-79.2836316
1058,M1V,Brimley Road Medical Center I.D.A.,Pharmacy,Scarborough,43.82116709744444,-79.28365524277304
1059,M4V,LCBO,Convenience Store,Toronto,43.686990631074885,-79.39923810519545
1060,M4V,The Market By Longo’s,Supermarket,Toronto,43.686711,-79.399536
1061,M4V,Starbucks,Coffee Shop,Toronto,43.687100712578356,-79.39861193331016
1062,M4V,Tim Hortons,Coffee Shop,Toronto,43.687682,-79.39684
1063,M4V,TTC Stop #,Light Rail Station,Toronto,43.6858256,-79.40498099
1064,M4V,TTC Stop #8181/2,Light Rail Station,Toronto,43.68531319488123,-79.40838020530103
1065,M5V,Sansotei Ramen,Ramen Restaurant,Toronto,43.63917614914748,-79.39818352488898
1066,M5V,Victoria Memorial Park,Park,Toronto,43.642784910591,-79.39959028140169
1067,M5V,Colette Grand Café,Restaurant,Toronto,43.6428439345688,-79.40094921450455
1068,M5V,Thor Espresso Bar,Café,Toronto,43.641997678128135,-79.4017593502488
1069,M5V,Thompson Hotel,Hotel,Toronto,43.64275344306491,-79.40155792422583
1070,M5V,Atlas Espresso Bar,Coffee Shop,Toronto,43.64106745249943,-79.39939237575273
1071,M5V,Moksha Yoga Downtown,Yoga Studio,Toronto,43.64235253746307,-79.40318498512346
1072,M5V,Roywoods,Caribbean Restaurant,Toronto,43.63909873327465,-79.3984489696356
1073,M5V,Bar Buca,Italian Restaurant,Toronto,43.64394406602748,-79.39992241954978
1074,M5V,GOTSTYLE Menswear,Men's Store,Toronto,43.642577772657745,-79.40216014149874
1075,M5V,Thompson Rooftop Lounge,Hotel Bar,Toronto,43.64313322821742,-79.40192258926605
1076,M5V,Le Sélect Bistro,French Restaurant,Toronto,43.64369893662352,-79.39666668117388
1077,M5V,WVRST,Beer Bar,Toronto,43.644217858825165,-79.40075777306231
1078,M5V,Hunters Landing,Pub,Toronto,43.63988502260931,-79.3969507148344
1079,M5V,Forno Cultura,Bakery,Toronto,43.6442960851905,-79.40071458712073
1080,M5V,Marben Restaurant,New American Restaurant,Toronto,43.64338514035015,-79.3983458305702
1081,M5V,Lee,Asian Restaurant,Toronto,43.64437490992841,-79.40042526918113
1082,M5V,Rose's New York,Diner,,43.6389451629175,-79.39894255268376
1083,M5V,Porchetta & Co,Sandwich Place,Toronto,43.64466404008139,-79.39881259826922
1084,M5V,Pizzeria Libretto,Italian Restaurant,Toronto,43.64444907678619,-79.39875856774019
1085,M5V,Cykl,Gym / Fitness Center,Toronto,43.64277841041074,-79.40236103414381
1086,M5V,Canoe Landing Park,Park,Toronto,43.63876173785461,-79.39706683158875
1087,M5V,Wilbur Mexicana,Mexican Restaurant,Toronto,43.644810149647334,-79.3986441942716
1088,M5V,Hammam Spa,Spa,Toronto,43.64451591410954,-79.40020879647211
1089,M5V,Starbucks,Coffee Shop,Toronto,43.636919889441835,-79.39983973643012
1090,M5V,Portland Variety,Restaurant,Toronto,43.644366593189524,-79.40006973587913
1091,M5V,Tim Hortons,Coffee Shop,Toronto,43.63744078539766,-79.40031096339226
1092,M5V,Buca,Italian Restaurant,Toronto,43.64478896478924,-79.40039440893409
1093,M5V,Big Smoke Burger,Restaurant,Toronto,43.644524949001315,-79.39965733721375
1094,M5V,The Keg Steakhouse & Bar,Steakhouse,Toronto,43.64471702270032,-79.39898491683932
1095,M8V,Islington & New Toronto St.,Intersection,Toronto,43.606705,-79.5064
1096,M9V,Subway,Sandwich Place,Etobicoke,43.742421428383224,-79.58947097431394
1097,M9V,Sheriff's No Frills,Grocery Store,Etobicoke,43.74196806166214,-79.58663897240363
1098,M9V,Shoppers Drug Mart,Pharmacy,Etobicoke,43.74083239297218,-79.58334731801473
1099,M9V,Popeyes Louisiana Kitchen,Fried Chicken Joint,Etobicoke,43.74120165509377,-79.58454469276013
1100,M9V,The Beer Store,Beer Store,Etobicoke,43.7416936,-79.5843728
1101,M9V,Pizza Pizza,Pizza Place,Etobicoke,43.74156896801906,-79.58448886871338
1102,M9V,Sunny Foodmart,Grocery Store,Toronto,43.74184023292111,-79.59056069637506
1103,M9V,McDonald's,Fast Food Restaurant,Toronto,43.74163461048035,-79.58444567853267
1104,M9V,Tim Hortons,Coffee Shop,Etobicoke,43.7420146612893,-79.58968967199326
1105,M9V,Canadian Tire,Hardware Store,Etobicoke,43.74184391350161,-79.5822936889543
1106,M9V,Canadian Tire Auto Service Centre,Auto Garage,Etobicoke,43.741844,-79.582542
1107,M1W,Mr Congee Chinese Cuisine 龍粥記,Chinese Restaurant,Toronto,43.798878792587615,-79.3183345011537
1108,M1W,Phoenix Restaurant 金鳳餐廳,Chinese Restaurant,Scarborough,43.79819775434163,-79.31843152382791
1109,M1W,Subway,Sandwich Place,Toronto,43.798982701368914,-79.31883822486604
1110,M1W,Price Chopper,Grocery Store,Toronto,43.799444969304986,-79.3185634598668
1111,M1W,Shoppers Drug Mart,Pharmacy,Scarborough,43.79967023212875,-79.31931541731906
1112,M1W,KFC,Fast Food Restaurant,Scarborough,43.7989384013184,-79.31885368338149
1113,M1W,Tim Hortons,Coffee Shop,Scarborough,43.7982809835749,-79.31831717491156
1114,M1W,McDonald's,Fast Food Restaurant,Toronto,43.79888016781628,-79.31872352564541
1115,M1W,Warden Park,Other Great Outdoors,,43.80478944172068,-79.32044929553253
1116,M1W,Bulk Food Stop,Grocery Store,Toronto,43.79905847489438,-79.31845752716555
1117,M1W,Yamamoto Japanese Cuisine 山本盛世,Japanese Restaurant,Toronto,43.79858925165167,-79.31855825035903
1118,M1W,Rogers Plus,Electronics Store,Toronto,43.79891100560725,-79.31827661522881
1119,M1W,Pizza Pizza,Pizza Place,Toronto,43.79790927666095,-79.31811332702635
1120,M4W,Summerhill Market,Grocery Store,Toronto,43.68626482142425,-79.37545823237794
1121,M4W,TD Canada Trust - Closed,Bank,Toronto,43.68609399737299,-79.37654927372932
1122,M4W,Whitney Park,Park,,43.68203573063681,-79.37378835021306
1123,M4W,Scoops Convenience Boutique,Candy Store,Toronto,43.68614765691369,-79.37582783178843
1124,M4W,Rosedale Park,Playground,Toronto,43.68232820227814,-79.37893434347683
1125,M5W,Real Sports Apparel,Sporting Goods Shop,Toronto,43.64285984835777,-79.38018363195047
1126,M5W,Scotiabank Arena,Basketball Stadium,Toronto,43.64344617535107,-79.37903988889991
1127,M5W,Real Sports Bar & Grill,Sports Bar,Toronto,43.64255846521551,-79.37996506690979
1128,M5W,Le Germain Hotel Toronto Maple Leaf Square,Hotel,Toronto,43.64312502979691,-79.38091770864038
1129,M5W,Maple Leaf Square,Plaza,Toronto,43.64292522840183,-79.38089182467687
1130,M5W,Air Canada Club,Lounge,Toronto,43.643224100030416,-79.37915938219528
1131,M5W,TELUS Store,Office,Toronto,43.64331243103257,-79.38099939294844
1132,M5W,Miku,Japanese Restaurant,Toronto,43.64137436,-79.37753063
1133,M5W,WVRST,Beer Bar,Toronto,43.64496809087762,-79.38137631843854
1134,M5W,iQ Food Co,Salad Place,Toronto,43.642851,-79.382081
1135,M5W,The Fairmont Royal York,Hotel,Toronto,43.64544914616651,-79.3815076529019
1136,M5W,Longo's Maple Leaf Square,Supermarket,Toronto,43.64251679604069,-79.38139301653129
1137,M5W,McCafé,Café,Toronto,43.644490691919735,-79.38110912246584
1138,M5W,Harbour 60 Toronto,Steakhouse,Toronto,43.64222021431867,-79.37794459004243
1139,M5W,e11even,New American Restaurant,Toronto,43.64242558687748,-79.38144094115985
1140,M5W,Union Pearson Express,Train Station,Toronto,43.64436200658875,-79.38319927907953
1141,M5W,Union Chicken,Fried Chicken Joint,Toronto,43.64491185903613,-79.38232534702786
1142,M5W,Hockey Hall Of Fame (Hockey Hall of Fame),Museum,Toronto,43.646974451431056,-79.37732323942681
1143,M5W,Booster Juice,Smoothie Shop,Toronto,43.64322536,-79.3812383
1144,M5W,Starbucks,Coffee Shop,Toronto,43.643416968242754,-79.38089063422369
1145,M5W,DAVIDsTEA,Tea Room,Toronto,43.646657736285796,-79.37764102856944
1146,M5W,Delta Hotels by Marriott Toronto,Hotel,Toronto,43.6428819,-79.3839491
1147,M5W,Balzac's Coffee,Coffee Shop,Toronto,43.644372584148364,-79.38306470027423
1148,M5W,Ki Modern Japanese + Bar,Japanese Restaurant,Toronto,43.64710349021134,-79.37938978621831
1149,M5W,Sony Centre for the Performing Arts,Concert Hall,Toronto,43.646292124205594,-79.37602179505662
1150,M5W,Starbucks,Coffee Shop,Toronto,43.644580752794965,-79.38167197782931
1151,M5W,Olly Fresco's,Deli / Bodega,Toronto,43.646912231909276,-79.37959661696463
1152,M5W,Walrus Pub & Beer Hall,Pub,Toronto,43.64737470920577,-79.37951515363918
1153,M5W,Canoe,Restaurant,Toronto,43.647452066183476,-79.38132001815676
1154,M5W,The Keg Steakhouse + Bar,Steakhouse,Toronto,43.64667637593993,-79.37482154865866
1155,M8W,Il Paesano Pizzeria & Restaurant,Pizza Place,Etobicoke,43.60128,-79.545028
1156,M8W,Toronto Gymnastics International,Gym,Toronto,43.59983195234328,-79.54292448822379
1157,M8W,Timothy's Pub,Pub,Etobicoke,43.60016508568706,-79.54469872722389
1158,M8W,Tim Hortons,Coffee Shop,Etobicoke,43.60239631505536,-79.5450476557017
1159,M8W,Subway,Sandwich Place,Etobicoke,43.599261522315125,-79.54433962697884
1160,M8W,Franklin Horner Community Centre,Athletics & Sports,Etobicoke,43.60370722144246,-79.53813754757284
1161,M8W,Rexall,Pharmacy,Toronto,43.60216452743958,-79.54537153292875
1162,M9W,Tim Hortons,Coffee Shop,Etobicoke,43.71465748224628,-79.59371566772467
1163,M9W,Xawaash,Mediterranean Restaurant,Toronto,43.71578559593828,-79.59305324759328
1164,M9W,Enterprise Rent-A-Car,Rental Car Location,Etobicoke,43.71526,-79.58932
1165,M9W,Swiss Pick,Swiss Restaurant,,43.716149756618115,-79.59384319385052
1166,M9W,Comfort Hotel Airport North,Hotel,Etobicoke,43.716186965687356,-79.59409295477909
1167,M4X,Cranberries,Diner,Toronto,43.6678427705951,-79.36940687874281
1168,M4X,Butter Chicken Factory,Indian Restaurant,Toronto,43.66707247004843,-79.36918422958169
1169,M4X,F'Amelia,Italian Restaurant,Toronto,43.66753590663226,-79.36861331485827
1170,M4X,Kingyo Toronto,Japanese Restaurant,Toronto,43.66589495808371,-79.36841520638596
1171,M4X,Murgatroid,Restaurant,Toronto,43.66738149016019,-79.36931129229457
1172,M4X,Cabbagetown Brew,Café,Toronto,43.66692279890784,-79.36928929560437
1173,M4X,Merryberry Cafe + Bistro,Café,,43.66663020301851,-79.36879184199822
1174,M4X,Absolute Bakery & Café,Bakery,Toronto,43.667469462461995,-79.36927654747196
1175,M4X,Fair Trade Jewellery Co.,Jewelry Store,Toronto,43.6653480241165,-79.36836240366654
1176,M4X,St. Jamestown Delicatessen,Butcher,Toronto,43.66581142395609,-79.36864825640076
1177,M4X,Mr. Jerk,Caribbean Restaurant,Toronto,43.66732847256732,-79.37338943621165
1178,M4X,Toronto Dance Theatre,General Entertainment,Toronto,43.66623230619368,-79.36707506629983
1179,M4X,Pet Valu,Pet Store,Toronto,43.66420501339666,-79.36846012382637
1180,M4X,Labour Of Love,Gift Shop,Toronto,43.663907,-79.368822
1181,M4X,Sunny Green Vegetable and Fruit,Market,Toronto,43.667555388483756,-79.3724347693053
1182,M4X,Kanpai Snack Bar,Taiwanese Restaurant,Toronto,43.664330935948634,-79.36806503124257
1183,M4X,The Pear Tree,Restaurant,Toronto,43.664904018134834,-79.36824639094671
1184,M4X,Hey Lucy,Italian Restaurant,Toronto,43.66407509923825,-79.36865505824356
1185,M4X,Jetfuel Coffee,Coffee Shop,Toronto,43.66529519392083,-79.3683345416816
1186,M4X,Thai Room - Cabbagetown,Thai Restaurant,Toronto,43.6641587260231,-79.36818872980979
1187,M4X,TD Canada Trust,Bank,Toronto,43.66465469253796,-79.36788707971579
1188,M4X,Toronto Public Library (St. James Town),Library,Toronto,43.668790439960134,-79.37499810757755
1189,M4X,Winchester Park,Playground,Toronto,43.66623107575282,-79.3716312803108
1190,M4X,Tim Hortons,Coffee Shop,Toronto,43.66716925802294,-79.36884865164751
1191,M4X,LCBO,Liquor Store,Toronto,43.665585593088366,-79.36853050840249
1192,M4X,The Beer Store,Beer Store,Toronto,43.6664079,-79.368833
1193,M4X,Pizza Pizza,Pizza Place,Toronto,43.667178738521734,-79.36966873777858
1194,M4X,Subway,Sandwich Place,Toronto,43.66559771704867,-79.36846996703981
1195,M4X,Tim Hortons,Coffee Shop,Toronto,43.665785871990316,-79.36828404664993
1196,M4X,Daniel et Daniel Event Creation & Catering,Bakery,Toronto,43.66421724890659,-79.36826854052997
1197,M5L,Canoe,Restaurant,Toronto,43.647452066183476,-79.38132001815676
1198,M5L,The Keg Steakhouse & Bar,Steakhouse,Toronto,43.649937252985254,-79.38419604942506
1199,M5L,Equinox Bay Street,Gym,Toronto,43.64809974034856,-79.37998869411526
1200,M5L,John & Sons Oyster House,Seafood Restaurant,Toronto,43.65065642537144,-79.38161285228475
1201,M5L,Adelaide Club Toronto,Gym / Fitness Center,Toronto,43.64927944291712,-79.38192123284551
1202,M5L,Maman,Café,Toronto,43.64830873804684,-79.38225333898805
1203,M5L,Cactus Club Cafe,American Restaurant,Toronto,43.6495520142626,-79.38167072512041
1204,M5L,Estiatorio Volos,Greek Restaurant,Toronto,43.65032912559998,-79.38453301297716
1205,M5L,Pilot Coffee Roasters,Coffee Shop,Toronto,43.648835391245896,-79.3809358125033
1206,M5L,Brick Street Bakery,Bakery,Toronto,43.6488151631615,-79.38060468610949
1207,M5L,King Taps,Gastropub,Toronto,43.648475974183,-79.38205778358744
1208,M5L,The Gabardine,American Restaurant,Toronto,43.65098801064232,-79.38122513218154
1209,M5L,Sam James Coffee Bar (SJCB),Café,Toronto,43.64788137014028,-79.38433152836829
1210,M5L,Hy's Steakhouse,Steakhouse,Toronto,43.649504756476944,-79.38291850488223
1211,M5L,Boxcar Social Temperance,Bar,Toronto,43.65055725249405,-79.38195634640063
1212,M5L,Assembly Chef's Hall,Food Court,Toronto,43.650578865093934,-79.3834119303614
1213,M5L,Pizzeria Libretto,Pizza Place,Toronto,43.64833354686235,-79.38511050184168
1214,M5L,Design Exchange,Art Gallery,Toronto,43.64797219581623,-79.38010382588462
1215,M5L,Pumpernickel's Deli,Deli / Bodega,Toronto,43.64883150054619,-79.38197006345457
1216,M5L,Cafe Landwer,Café,Toronto,43.64875349932059,-79.3853673607289
1217,M5L,Rosalinda,Vegetarian / Vegan Restaurant,Toronto,43.650252483069295,-79.38515575620075
1218,M5L,Earls Kitchen & Bar,Bar,Toronto,43.647945662980305,-79.3837058277153
1219,M5L,Mos Mos Coffee,Café,Toronto,43.64815919753501,-79.37874450467258
1220,M5L,Dineen Coffee,Café,Toronto,43.650497,-79.378765
1221,M5L,M Square Coffee Co,Coffee Shop,Toronto,43.65121797253777,-79.38355459932247
1222,M5L,Kupfert & Kim (First Canadian Place),Gluten-free Restaurant,Toronto,43.64854659465186,-79.38162406470161
1223,M5L,Four Seasons Centre for the Performing Arts,Concert Hall,Toronto,43.650592,-79.385806
1224,M5L,Dineen @CommerceCourt,Coffee Shop,Toronto,43.648250543365556,-79.38012728220869
1225,M5L,DAVIDsTEA,Tea Room,Toronto,43.650546552943766,-79.38338493349875
1226,M5L,Bosk at Shangri-La,Asian Restaurant,Toronto,43.649022736761516,-79.38582635521233
1227,M8X,Caffé Demetre,Dessert Shop,Toronto,43.64808798157569,-79.50854813200596
1228,M8X,LCBO,Liquor Store,Toronto,43.64830547025098,-79.50788144107516
1229,M8X,Momiji Sushi Bar & Grill,Sushi Restaurant,Etobicoke,43.647843041892976,-79.50853435479806
1230,M8X,Creme de la Creme,Breakfast Spot,Etobicoke,43.64775285940716,-79.50990378136584
1231,M8X,Starbucks,Coffee Shop,Etobicoke,43.64829232178871,-79.5077497137651
1232,M8X,Magic Spot,Burger Joint,Toronto,43.64783593140486,-79.50914074789482
1233,M8X,Hot Oven,Bakery,Toronto,43.6478909960557,-79.50935274562029
1234,M8X,The Old Sod,Pub,Toronto,43.64829704413176,-79.50764180149628
1235,M8X,Swiss Chalet,Restaurant,Etobicoke,43.64781648473772,-79.50836098862833
1236,M8X,TD Canada Trust,Bank,Etobicoke,43.64807455051582,-79.50916640460491
1237,M8X,Eggsmart,Breakfast Spot,Etobicoke,43.647914,-79.507701
1238,M8X,Sushi 2 Go,Sushi Restaurant,Toronto,43.64787495176972,-79.50942661949566
1239,M8X,Gabby's Grill & Taps,Bar,Toronto,43.648451979703715,-79.50648193548962
1240,M8X,Cafe Jules Pâtisserie,Bakery,,43.648877,-79.506348
1241,M8X,On The Rocks,Lounge,Toronto,43.6481443028815,-79.50845085224402
1242,M4Y,Smith,Breakfast Spot,Toronto,43.66692666745884,-79.38142135954267
1243,M4Y,Storm Crow Manor,Theme Restaurant,Toronto,43.66683985695023,-79.38159278029707
1244,M4Y,The Alley,Bubble Tea Shop,Toronto,43.66592244798498,-79.38556672752236
1245,M4Y,DanceLifeX Centre,Dance Studio,Toronto,43.66695583448771,-79.3852972984314
1246,M4Y,Fabarnak,Restaurant,Toronto,43.66637677585409,-79.38096396850409
1247,M4Y,DAVIDsTEA,Tea Room,Toronto,43.66492997804687,-79.38063036396566
1248,M4Y,Ho's Team Barber Shop,Salon / Barbershop,Toronto,43.66563031656884,-79.38135926650858
1249,M4Y,Sansotei Ramen 三草亭,Ramen Restaurant,Toronto,43.666734794517005,-79.3853530009483
1250,M4Y,FUEL+,Juice Bar,Toronto,43.66439936324463,-79.38042718414235
1251,M4Y,North of Brooklyn Pizzeria,Pizza Place,Toronto,43.664383604568975,-79.38037571983865
1252,M4Y,Barbara Hall Park,Park,Toronto,43.66687857011423,-79.38106777601625
1253,M4Y,Glad Day Bookshop,Bookstore,Toronto,43.66527119350875,-79.38078512672504
1254,M4Y,Tokyo Grill,Japanese Restaurant,Toronto,43.665085238149395,-79.38470692554789
1255,M4Y,Wickson Social,Gastropub,Toronto,43.66590450775969,-79.38571974166427
1256,M4Y,Churchmouse & Firkin,Pub,Toronto,43.66463217328346,-79.38040612389896
1257,M4Y,401 Games,Hobby Shop,Toronto,43.663623277853254,-79.3840374323983
1258,M4Y,T-Swirl Crepe,Creperie,Toronto,43.663452,-79.384125
1259,M4Y,Starbucks,Coffee Shop,Toronto,43.66500900374431,-79.38056421775902
1260,M4Y,Como En Casa,Mexican Restaurant,Toronto,43.66516,-79.384796
1261,M4Y,Coach House Restaurant,Diner,Toronto,43.66499059853204,-79.38481415727767
1262,M4Y,Woody's and Sailor,Gay Bar,Toronto,43.664389684023526,-79.38036131100687
1263,M4Y,Hero Certified Burgers,Burger Joint,Toronto,43.66562403029978,-79.38090430769088
1264,M4Y,Baskin Robbins,Ice Cream Shop,Toronto,43.66507308115074,-79.38068437615618
1265,M4Y,Riddle Room,General Entertainment,Toronto,43.665881092438454,-79.38493615023397
1266,M4Y,Ethiopian House,Ethiopian Restaurant,Toronto,43.6665987043968,-79.38566906742606
1267,M4Y,Black Eagle,Gay Bar,Toronto,43.66408473971554,-79.38009823456886
1268,M4Y,St. Louis Bar and Grill,Wings Joint,Toronto,43.66385323730235,-79.38418742909323
1269,M4Y,Seduction,Adult Boutique,Toronto,43.66562020759618,-79.38468138721245
1270,M4Y,Ginger,Vietnamese Restaurant,Toronto,43.665371542785785,-79.38084590182032
1271,M4Y,The Men's Room,Men's Store,Toronto,43.664445596525944,-79.38006704821788
1272,M7Y,Fukuoka Sushi,Sushi Restaurant,Scarborough,43.78067935750718,-79.24732025929174
1273,M7Y,Cora's,Breakfast Spot,Toronto,43.78341688524566,-79.25310719667152
1274,M7Y,Starbucks,Coffee Shop,Scarborough,43.78365645468231,-79.25319525988705
1275,M7Y,Timothy's Coffee,Coffee Shop,Toronto,43.77685540941018,-79.25188558949503
1276,M7Y,Faith Family Books & Gifts,Bookstore,Scarborough,43.78332985690461,-79.25315682715052
1277,M7Y,Jack Astor's Bar & Grill,Restaurant,Toronto,43.77750229592645,-79.2545536457394
1278,M7Y,Scaddabush Scarborough,Italian Restaurant,Scarborough,43.77745990418128,-79.25435776816887
1279,M7Y,Pumpernickel's,Deli / Bodega,Scarborough,43.776882448908395,-79.25173280297763
1280,M7Y,Mitra Hot Yoga,Yoga Studio,Scarborough,43.77681225646793,-79.24707354680693
1281,M7Y,Winners,Department Store,Scarborough,43.7827428246865,-79.2527666687965
1282,M7Y,Milestones,Fast Food Restaurant,Scarborough,43.777938540257544,-79.25528609020084
1283,M7Y,Teriyaki Experience,Japanese Restaurant,Scarborough,43.78353928225575,-79.25311747735508
1284,M7Y,Hwy 401 at McCowan,Road,Toronto,43.7802200478184,-79.25516099880329
1285,M7Y,Ultimate Martial Arts,Martial Arts Dojo,Scarborough,43.7773196944796,-79.24855367745923
1286,M7Y,Freshii,Salad Place,Toronto,43.78372,-79.25318
1287,M8Y,Woodford Park,Baseball Field,,43.63315249748257,-79.49626581098377
1288,M8Y,Jeff Healey Park,Park,Toronto,43.630397,-79.495214
1289,M8Y,Enerview Windows and Doors,Home Service,Concord,43.63525984001682,-79.49041575193405
1290,M8Z,Fat Bastard Burrito Co.,Burrito Place,Etobicoke,43.62209851449942,-79.521880074884
1291,M8Z,Burrito Boyz,Burrito Place,Toronto,43.62179051874228,-79.52260072049648
1292,M8Z,K & B Sushi,Sushi Restaurant,Etobicoke,43.622269,-79.522485
1293,M8Z,Shawarma Grill Express,Middle Eastern Restaurant,Toronto,43.62176016357076,-79.52253946724997
1294,M8Z,Moksha Yoga Etobicoke,Yoga Studio,Toronto,43.622671736892094,-79.51947824768995
1295,M8Z,Royal Meats BBQ,Burger Joint,Toronto,43.62535277307904,-79.52907322434908
1296,M8Z,Mangosteens Thai Cuisine,Thai Restaurant,Toronto,43.621419025047864,-79.52477060788105
1297,M8Z,Xtreme Couture,Gym / Fitness Center,Toronto,43.62479882826459,-79.52862581113357
1298,M8Z,LCBO,Liquor Store,Toronto,43.623196378765826,-79.51800475603498
1299,M8Z,Burrito Boyz,Burrito Place,Etobicoke,43.62665661432599,-79.52634931800284
1300,M8Z,Mandarin Buffet,Buffet,Toronto,43.62135152741514,-79.52301534553732
1301,M8Z,Kingsway Boxing Club,Gym,Toronto,43.627254438608404,-79.52668419449365
1302,M8Z,Mr. Sub,Sandwich Place,Toronto,43.622458,-79.521088
1303,M8Z,Aren't We Naughty,Adult Boutique,Etobicoke,43.62293277845617,-79.51853451871062
1304,M8Z,Royal Canadian Legion #210,Social Club,Etobicoke,43.62885507709014,-79.51890264900013
